siteName,siteStatus,siteAddress,siteState,siteZip,contactPhone,startDate,endDate,daysofOperation,breakfastTime,lunchTime,snackTimeAM,snackTimePM,dinnerSupperTime,latitude,longitude
13th Ave N & River St. Intersection,,"13th Ave N & River St. Payette, ID 83661",ID,83661,2086424751,3/18/2020,3/30/2020,,,,,,,44.08765349999999,-116.945937
14th & Elgin Intersection,,"N 14th Ave & E Elgin St Caldwell, ID 83605",ID,83605,2084553331,3/18/2020,6/30/2020,,,,,,,43.6658465,-116.6759206
1500 E Near Jensen's,,"1950 S 1500 E Gooding, ID 83330",ID,83330,2089344321,3/18/2020,6/30/2020,,,,,,,42.9161273,-114.7901355
5th & Galveston Intersection,,"N 5th Ave & E Galveston St Caldwell, ID 83605",ID,83605,2084553331,3/18/2020,6/30/2020,,,,,,,43.6736112,-116.6836411
Aberdeen Elementary School,,"382 W Washington Ave Aberdeen, ID 83210",ID,83210,2083974115,3/30/2020,4/3/2020,,,,,,,42.9436375,-112.8437519
AH Bush Elementary,,"380 West Anderson St Idaho Falls, ID 83402",ID,83402,2085257532,3/18/2020,6/30/2020,,,,,,,43.5119345,-112.0370197
AJ Winters Elementary,,"535 Clay Street Montpelier, ID 83254",ID,83254,2084067771,3/17/2020,3/26/2020,,,,,,,42.3215942,-111.3026799
Alameda Park,,"Wayne Avenue and Pine Street Pocatello, ID   83201",ID  ,83201,2082353256,3/25/2020,5/30/2020,,,,,,,42.884183,-112.445282
Almon Bus Route,,"411 N Almon Moscow , ID 83843",ID,83843,2088921123,3/24/2020,4/3/2020,,,,,,,46.73713799999999,-117.004063
Almon Bus Route,,"619 N Almon Moscow , ID 83843",ID,83843,2088921123,3/24/2020,4/3/2020,,,,,,,46.7389492,-117.0054811
Almon Bus Route,,"900 N Almon Moscow , ID 83843",ID,83843,2088921123,3/24/2020,4/3/2020,,,,,,,46.7433847,-117.0045428
Almon Bus Route,,"West A and Baker St. Moscow , ID 83843",ID,83843,2088921123,3/24/2020,4/3/2020,,,,,,,46.73508289999999,-117.0200186
Alturas Elementary,,"1111 Alturas Elementary Lane Hailey , ID 83333",ID,83333,2085785000,3/18/2020,4/3/2020,,,,,,,43.4933102,-114.2757848
Arbor Crossing Apartments,,"5122 W. Stoker Ln Boise , ID  8.703",ID ,8.703,2088544067,3/23/2020,6/30/2020,,,,,,,43.6534696,-116.2522005
Ashton Elementary,,"168 S 1st Ashton, ID 83420",ID,83420,2086247542,3/23/2020,4/20/2020,,,,,,,44.0697921,-111.4551181
Athol Elementary,,"6333 E Menser Ave Athol, ID 83801",ID,83801,2086870431,3/18/2020,4/24/2020,,,,,,,47.944781,-116.699954
Atlas Elementary,,"3000 W. Honeysuckle Hayden, ID  83835",ID ,83835,2089290220,3/23/2020,6/30/2020,,,,,,,47.7511441,-116.827725
Avon Trailer Park,,"224 Summer St Caldwell, ID 83605",ID,83605,2084553331,3/18/2020,6/30/2020,,,,,,,43.6728175,-116.7004417
AW Johnson Elementary School,,"735 N 600 E Firth, ID 83236",ID,83236,2083466848,3/30/2020,4/9/2020,,,,,,,43.3022782,-112.1774832
Balmoral Apartments,,"851 Shenandoah Dr Hailey , ID 83333",ID,83333,2085785000,3/18/2020,4/3/2020,,,,,,,43.4982767,-114.285291
Bannock Peak,,"1707 E County Rd Pocatello, ID 83204",ID,83204,2082214830,3/30/2020,5/1/2020,,,,,,,42.8869299,-112.6357068
Battle Ridge Bus Route AM service and PM Service,,"348 Battle Ridge Road Kooskia, ID  83539",ID ,83539,2089830990,3/19/2020,6/30/2020,,,,,,,46.1027203,-115.9671526
Battle Ridge Bus Route AM service and PM Service,,"QUAIL LANE & BATTLE RIDGE RD Kooskia, ID 83539",ID,83539,2089830990,3/19/2020,6/30/2020,,,,,,,46.0623936,-115.9119936
Battle Ridge Bus Route AM service and PM Service,,"186 Tinker Lane Kooskia, ID 83539",ID,83539,2089830990,3/19/2020,6/30/2020,,,,,,,46.07337340000001,-115.9366287
Battle Ridge Bus Route AM service and PM Service,,"825 BATTLE RIDGE Kooskia, ID 83539",ID,83539,2089830990,3/19/2020,6/30/2020,,,,,,,46.07791839999999,-115.9322841
Battle Ridge Bus Route AM service and PM Service,,"739 BATTLE RIDGE ROAD Kooskia, ID 83539",ID,83539,2089830990,3/19/2020,6/30/2020,,,,,,,46.08145390000001,-115.944322
Battle Ridge Bus Route AM service and PM Service,,"744 BATTLE RIDGE ROAD Kooskia, ID 83539",ID,83539,2089830990,3/19/2020,6/30/2020,,,,,,,46.0866457,-115.9496567
Battle Ridge Bus Route AM service and PM Service,,"Intersection Stites Grade and State Street Stites, ID 83552",ID,83552,2089830990,3/19/2020,6/30/2020,,,,,,,46.0880435,-115.9742076
Battle Ridge Bus Route AM service and PM Service,,"Intersection East St. and Stites Grade Rd. Stites, ID 83552",ID,83552,2089830990,3/19/2020,6/30/2020,,,,,,,46.088045,-115.9749409
Battle Ridge Bus Route AM service and PM Service,,"4643 HWY 13 Kooskia, ID 83539",ID,83539,2089830990,3/19/2020,6/30/2020,,,,,,,46.1162605,-115.9779357
Battle Ridge Bus Route AM service and PM Service,,"416 Main St. Kooskia, ID 83539",ID,83539,2089830990,3/19/2020,6/30/2020,,,,,,,46.1352196,-115.9783117
Battle Ridge Bus Route AM service and PM Service,,"165 Hill Street Kooskia, ID 83539",ID,83539,2089830990,3/19/2020,6/30/2020,,,,,,,46.14119549999999,-115.9847503
Battle Ridge Bus Route AM service and PM Service,,"19 N Depot Street Kooskia, ID 83539",ID,83539,2089830990,3/19/2020,6/30/2020,,,,,,,46.1409777,-115.9834868
Battle Ridge Bus Route AM service and PM Service,,"198 Depot Street Kooskia, ID 83539",ID,83539,2089830990,3/19/2020,6/30/2020,,,,,,,46.14000540000001,-115.9832304
Battle Ridge Bus Route AM service and PM Service,,"149 Orchard Lane Kooskia, ID 83539",ID,83539,2089830990,3/19/2020,6/30/2020,,,,,,,46.1300969,-115.9849641
Battle Ridge Bus Route AM service and PM Service,,"257 Thenon Road Kooskia, ID 83539",ID,83539,2089830990,3/19/2020,6/30/2020,,,,,,,46.138746,-115.9813244
Bellevue Elementary,,"305 N 5th Street Bellevue, ID 83313",ID,83313,2085785000,3/18/2020,4/3/2020,,,,,,,43.4683585,-114.2566044
Benewah Community Center,,"11640 Benewah Creek Road St. Maries, ID 83861",ID,83861,2082451309,3/23/2020,6/30/2020,,,,,,,47.225532,-116.7842504
Bicentennial Park,,"Abraham St Chubbuck, ID 83202",ID,83202,2082353256,3/25/2020,5/30/2020,,,,,,,42.9365449,-112.4695654
Bickel Elementary School,,"607 2nd Ave E Twin Falls, ID 83301",ID,83301,2087330134,3/30/2020,4/30/2020,,,,,,,42.5521012,-114.4624203
Big Cedar Bus Route AM and PM sites,,"446 Crane Hill Road Kooskia, ID 83539",ID,83539,2089830990,3/19/2020,6/30/2020,,,,,,,46.0605807,-115.8034877
Big Cedar Bus Route AM and PM sites,,"202 Pine Hollow Lane Kooskia, ID 83539",ID,83539,2089830990,3/19/2020,6/30/2020,,,,,,,46.1460995,-115.975961
Big Cedar Bus Route AM and PM sites,,"263 Crane Hill Road Kooskia, ID 83539",ID,83539,2089830990,3/19/2020,6/30/2020,,,,,,,46.07298429999999,-115.7952949
Big Cedar Bus Route AM and PM sites,,"217 Crane Hill Road Kooskia, ID 83539",ID,83539,2089830990,3/19/2020,6/30/2020,,,,,,,46.0774358,-115.7959557
Big Cedar Bus Route AM and PM sites,,"143 Crane Hall Road Kooskia, ID 83539",ID,83539,2089830990,3/19/2020,6/30/2020,,,,,,,46.1448942,-115.9779189
Big Cedar Bus Route AM and PM sites,,"146 Cedar Hollow Lane Kooskia, ID 83539",ID,83539,2089830990,3/19/2020,6/30/2020,,,,,,,46.07142169999999,-115.8144601
Big Cedar Bus Route AM and PM sites,,"791 Big Cedar Rd Kooskia, ID 83539",ID,83539,2089830990,3/19/2020,6/30/2020,,,,,,,46.0774215,-115.8056816
Big Cedar Bus Route AM and PM sites,,"46°04'45.8""N 115°48'29.9""W Kooskia, ID 83539",ID,83539,2089830990,3/19/2020,6/30/2020,,,,,,,46.144141,-115.969101
Big Cedar Bus Route AM and PM sites,,"Intersection RED FIR and Old School House Kooskia, ID 83539",ID,83539,2089830990,3/19/2020,6/30/2020,,,,,,,46.1461422,-115.9744269
Big Cedar Bus Route AM and PM sites,,"Intersection CEDAR CREEK and Falcon Ridge Road Kooskia, ID 83539",ID,83539,2089830990,3/19/2020,6/30/2020,,,,,,,46.063767,-115.845687
Big Cedar Bus Route AM and PM sites,,"414 Big Cedar Road Kooskia Kooskia, ID 83539",ID,83539,2089830990,3/19/2020,6/30/2020,,,,,,,46.071071,-115.8480952
Big Cedar Bus Route AM and PM sites,,"Intersection HAWTHORNE and Big Cedar Road Kooskia, ID 83539",ID,83539,2089830990,3/19/2020,6/30/2020,,,,,,,46.07790130000001,-115.8188814
Big Cedar Bus Route AM and PM sites,,"Intersection WILD PLUM  & BIG CEDAR RD Kooskia, ID 83539",ID,83539,2089830990,3/19/2020,6/30/2020,,,,,,,46.0876394,-115.8618403
Big Cedar Bus Route AM and PM sites,,"Intersection Mulledy and Leitch Creek Road Kooskia, ID 83539",ID,83539,2089830990,3/19/2020,6/30/2020,,,,,,,46.09508049999999,-115.9033027
Big Cedar Bus Route AM and PM sites,,"469 LEITCH CREEK RD Kooskia, ID 83539",ID,83539,2089830990,3/19/2020,6/30/2020,,,,,,,46.1085921,-115.9107686
Big Cedar Bus Route AM and PM sites,,"Intersection Long Bluff Road and Leitch Creek Road Kooskia, ID 83539",ID,83539,2089830990,3/19/2020,6/30/2020,,,,,,,46.103509,-115.906747
Big Cedar Bus Route AM and PM sites,,"Intersection Mulledy Road and Leitch Creek Road Kooskia, ID 83539",ID,83539,2089830990,3/19/2020,6/30/2020,,,,,,,46.09508049999999,-115.9033027
Big Sky,,"Intersection Falcon Circle E and Curlew Road American Falls, ID 83211",ID,83211,2082214830,3/30/2020,5/1/2020,,,,,,,42.9240235,-112.6367123
Big Sky Dairy Housing,,"2300 S 1400 E Gooding, ID 83330",ID,83330,2089344321,3/18/2020,6/30/2020,,,,,,,42.8655917,-114.8095512
Big Sky Heifer Ranch,,"1500 S 2050 E Gooding, ID 83330",ID,83330,2089344321,3/18/2020,6/30/2020,,,,,,,42.9820438,-114.6834663
Birch Elementary School,,"6900 Birch Lane Nampa, ID 83688",ID,83688,2084549614,3/30/2020,5/29/2020,,,,,,,43.613248,-116.53131
Blackfoot Heritage Sixth Grade,,"50 S Shilling Ave Blackfoot, ID 83221",ID,83221,2087858861,3/23/2020,4/3/2020,,,,,,,43.1867496,-112.3427371
Blue Haven Mobile Home Park,,"110 Blue Haven Lane Ketchum, ID 83353",ID,83353,2085785000,3/18/2020,4/3/2020,,,,,,,43.6494502,-114.3483726
Borah Elementary,,"632 E. Borah Ave. Coeur d' Alene, ID  83814",ID ,83814,2089290220,3/23/2020,6/30/2020,,,,,,,47.698532,-116.777275
Boundary County Middle School,,"6577 Main St. 100 Bonners Ferry, ID 83805",ID,83805,2082675519,3/23/2020,5/31/2020,"M,T,W,Th",,,,,,48.6797868,-116.325919
Bovill Elementary School ,,"410 3rd Avenue Bovill, ID 83806",ID,83806,2088771152,3/23/2020,3/27/2020,,,,,,,46.8595397,-116.3935464
Bridgewater Elementary,,"1499 Indian Hollow Dr. Idaho Falls, ID 83401",ID,83401,2082279671,3/16/2020,6/30/2020,,,,,,,43.5093404,-111.9659749
Bryan Elementary,,"820 Harrison Ave. Coeur d' Alene, ID  83814",ID ,83814,2089290220,3/23/2020,6/30/2020,,,,,,,47.6859314,-116.7749413
Burley High School,,"2100 Parke Ave Burley, ID 83318",ID,83318,2088786626,3/30/2020,4/3/2020,,,,,,,42.52657079999999,-113.8042436
Bus Route,,"213 Hells Gulch Road St. Maries, ID 83861",ID,83861,2086893511,3/19/2020,6/30/2020,,,,,,,47.3274157,-116.5697104
Bus Route,,"7407 Hells Gulch Road St. Maries, ID 83861",ID,83861,2086893511,3/19/2020,6/30/2020,,,,,,,47.3729302,-116.5927819
Bus Route,,"31465 S Hells Gulch Road St. Maries, ID 83861",ID,83861,2086893511,3/19/2020,6/30/2020,,,,,,,47.390823,-116.654897
Bus Route,,"Mission Point Lane St. Maries, ID 83861",ID,83861,2086893511,3/19/2020,6/30/2020,,,,,,,47.3668488,-116.6775535
Bus Route,,"Indian Mountain Road Harrison, ID 83833",ID,83833,2086893511,3/19/2020,6/30/2020,,,,,,,47.3894403,-116.7140817
Bus Route,,"5683 E O'Gara Road Harrison, ID 83833",ID,83833,2086893511,3/19/2020,6/30/2020,,,,,,,47.417236,-116.7416359
Bus Route,,"2102 E O'Gara Rod Harrison, ID 83833",ID,83833,2086893511,3/19/2020,6/30/2020,,,,,,,47.442842,-116.769634
Bus Route,,"Harrison City Hall 100 N Frederick Harrison, ID 83833",ID,83833,2086893511,3/19/2020,6/30/2020,,,,,,,47.4534526,-116.7873176
Bus Route,,"200 S Coeur d'Alene Avenue Harrison, ID 83833",ID,83833,2086893511,3/19/2020,6/30/2020,,,,,,,47.453362,-116.786456
Bus Route,,"Skyline and Van Dusen Harrison, ID 83833",ID,83833,2086893511,3/19/2020,6/30/2020,,,,,,,47.44384960000001,-116.7185122
Bus Route,,"4202 E Van Dusen Harrison, ID 83833",ID,83833,2086893511,3/19/2020,6/30/2020,,,,,,,47.4438591,-116.7235573
Bus Route,,"4995 E Van Dusen Harrison, ID 83833",ID,83833,2086893511,3/19/2020,6/30/2020,,,,,,,47.444018,-116.7114829
Bus Route 2,,"24338 Highway 3 Medimont, ID 83842",ID,83842,2086893511,3/19/2020,6/30/2020,,,,,,,47.504588,-116.543257
Bus Route 2,,"28260 Highway 3 Medimont, ID 83842",ID,83842,2086893511,3/19/2020,6/30/2020,,,,,,,47.478432,-116.571915
Bus Route 2,,"22090 Highway 3 Medimont, ID 83842",ID,83842,2086893511,3/19/2020,6/30/2020,,,,,,,47.513901,-116.519106
Bus Route 2,,"21700 S Lake Street Medimont, ID 83842",ID,83842,2086893511,3/19/2020,6/30/2020,,,,,,,47.475891,-116.604202
Bus Route 2,,"35775 Highway 3 Harrison, ID 83833",ID,83833,2086893511,3/19/2020,6/30/2020,,,,,,,47.456998,-116.6372301
Bus Route 2,,"36124 Highway 3 Harrison, ID 83833",ID,83833,2086893511,3/19/2020,6/30/2020,,,,,,,47.454127,-116.638722
Bus Route 2,,"Highway 3 mile marker 100 Harrison, ID 83833",ID,83833,2086893511,3/19/2020,6/30/2020,,,,,,,47.4543498,-116.7854567
Bus Route 2,,"Wood Duck Lane Harrison, ID 83833",ID,83833,2086893511,3/19/2020,6/30/2020,,,,,,,47.4220581,-116.6277228
Bus Route 2,,"40475 Highway 3 Harrison, ID 83833",ID,83833,2086893511,3/19/2020,6/30/2020,,,,,,,47.42058,-116.625097
Bus Route 2,,"44793 Highway 3 Harrison, ID 83833",ID,83833,2086893511,3/19/2020,6/30/2020,,,,,,,47.40992540000001,-116.6624089
Bus Route Feeding Route to Garden Valley School,,"1044 Banks Garden Valley, ID 83622",ID,83622,2084623756,3/30/2020,6/1/2020,,,,,,,44.095901,-115.957929
Bus Route Feeding Route to Garden Valley School,,"15 Timber Ln Garden Valley, ID 83622",ID,83622,2084623756,3/30/2020,6/1/2020,,,,,,,44.1078436,-115.9903659
Bus Route Feeding Route to Garden Valley School,,"Frazier Creek Rd Garden Valley, ID 83622",ID,83622,2084623756,3/30/2020,6/1/2020,,,,,,,44.0930835,-116.0232821
Bus Route Feeding Route to Garden Valley School,,"Rivers Point Ln Garden Valley, ID 83622",ID,83622,2084623756,3/30/2020,6/1/2020,,,,,,,44.0919511,-115.9544145
Bus Route Feeding Route to Garden Valley School,,"856 Banks Lowman Rd Garden Valley, ID 83622",ID,83622,2084623756,3/30/2020,6/1/2020,,,,,,,44.0749728,-115.9454196
Bus Route Feeding Route to Garden Valley School,,"Sawmill Ln Garden Valley, ID 83622",ID,83622,2084623756,3/30/2020,6/1/2020,,,,,,,44.1173324,-115.963918
Bus Route Feeding Route to Garden Valley School,,"290 S Middlefork Rd Garden Valley, ID 83622",ID,83622,2084623756,3/30/2020,6/1/2020,,,,,,,44.11719859999999,-115.9744742
Bus Route Feeding Route to Garden Valley School,,"Wander Inn Garden Valley Garden Valley, ID 83622",ID,83622,2084623756,3/30/2020,6/1/2020,,,,,,,44.1160052,-115.9711231
Bus Route Feeding Route to Garden Valley School,,"486 S Middlefork Rd Garden Valley, ID 83622",ID,83622,2084623756,3/30/2020,6/1/2020,,,,,,,44.1159817,-115.9711382
Bus Route Feeding Route to Garden Valley School,,"Castle Mountain Dr. Garden Valley, ID 83622",ID,83622,2084623756,3/30/2020,6/1/2020,,,,,,,44.1507079,-115.997032
Bus Route Feeding Route to Garden Valley School,,"Old Crouch Road Garden Valley, ID 83622",ID,83622,2084623756,3/30/2020,6/1/2020,,,,,,,44.1074772,-115.9696029
Bus Route Feeding Route to Garden Valley School,,"25 Miracle Ln Garden Valley, ID 83622",ID,83622,2084623756,3/30/2020,6/1/2020,,,,,,,44.0903358,-115.9814834
Bus Route Feeding Route to Garden Valley School,,"Branson Drive Lowman, ID 83622",ID,83622,2084623756,3/30/2020,6/1/2020,,,,,,,44.0809804,-115.6186743
Bus Route Feeding Route to Garden Valley School,,"South Fork Loop Lowman, ID 83622",ID,83622,2084623756,3/30/2020,6/1/2020,,,,,,,44.0809313,-115.6198621
Bus Route Feeding Route to Garden Valley School,,"8406 ID-21 Lowman, ID 83622",ID,83622,2084623756,3/30/2020,6/1/2020,,,,,,,44.1126649,-115.4371619
Bus Route Feeding Route to Garden Valley School,,"7600 High Way 21 Lowman, ID 83622",ID,83622,2084623756,3/30/2020,6/1/2020,,,,,,,44.0750316,-115.5570001
Bus Route Feeding Route to Garden Valley School,,"7359 ID-21 Lowman, ID 83622",ID,83622,2084623756,3/30/2020,6/1/2020,,,,,,,44.0783333,-115.6025
Bus Route Feeding Route to Garden Valley School,,"Southfork Ln Garden Valley, ID 83622",ID,83622,2084623756,3/30/2020,6/1/2020,,,,,,,44.070138,-115.948404
Bus Route Feeding Route to Garden Valley School,,"Elzie Ln Garden Valley, ID 83622",ID,83622,2084623756,3/30/2020,6/1/2020,,,,,,,44.08795019999999,-115.9513911
Bus Route Feeding Route to Garden Valley School,,"17 Tucker Ln Garden Valley, ID 83622",ID,83622,2084623756,3/30/2020,6/1/2020,,,,,,,44.0880866,-115.9547395
Bus Route Feeding Route to Garden Valley School,,"Castle Mountain Mailboxes Garden Valley Garden Valley, ID 83622",ID,83622,2084623756,3/30/2020,6/1/2020,,,,,,,44.1507079,-115.997032
Bus Route Feeding Route to Garden Valley School,,"Warm Springs Rd Garden Valley, ID 83622",ID,83622,2084623756,3/30/2020,6/1/2020,,,,,,,44.153647,-115.988482
Bus Route Feeding Route to Garden Valley School,,"126 Warm Springs Rd Garden Valley, ID 83622",ID,83622,2084623756,3/30/2020,6/1/2020,,,,,,,44.1537872,-115.9887974
Bus Route Feeding Route to Garden Valley School,,"Shilo Ranch & McBride Creek Garden Valley, ID 83622",ID,83622,2084623756,3/30/2020,6/1/2020,,,,,,,44.1466039,-115.9938633
Bus Route Feeding Route to Garden Valley School,,"12 Lightning Creek Cir Garden Valley, ID 83622",ID,83622,2084623756,3/30/2020,6/1/2020,,,,,,,44.195184,-115.931974
Bus Route Feeding Route to Garden Valley School,,"35 Crossbow Rd Garden Valley, ID 83622",ID,83622,2084623756,3/30/2020,6/1/2020,,,,,,,44.19314600000001,-115.947779
Bus Route Feeding Route to Garden Valley School,,"51 Wagon Springs Rd Garden Valley, ID 83622",ID,83622,2084623756,3/30/2020,6/1/2020,,,,,,,44.19127779999999,-115.9473631
Bus Route Feeding Route to Garden Valley School,,"Bunch Drive Garden Valley, ID 83622",ID,83622,2084623756,3/30/2020,6/1/2020,,,,,,,44.1907977,-115.9424969
Bus Route Feeding Route to Garden Valley School,,"Riffle Ln Garden Valley, ID 83622",ID,83622,2084623756,3/30/2020,6/1/2020,,,,,,,44.18857490000001,-115.9490857
Bus Route Feeding Route to Garden Valley School,,"Wooded River Garden Valley, ID 83622",ID,83622,2084623756,3/30/2020,6/1/2020,,,,,,,44.1843545,-115.950491
Bus Route Feeding Route to Garden Valley School,,"Scriver Creek Garden Valley, ID 83622",ID,83622,2084623756,3/30/2020,6/1/2020,,,,,,,44.1836866,-115.975047
Bus Route Feeding Route to Garden Valley School,,"Scriver Bluff Garden Valley, ID 83622",ID,83622,2084623756,3/30/2020,6/1/2020,,,,,,,44.17385729999999,-115.9645656
Bus Route Feeding Route to Garden Valley School,,"River Road Garden Valley, ID 83622",ID,83622,2084623756,3/30/2020,6/1/2020,,,,,,,44.16312140000001,-115.9604448
Bus Route Feeding Route to Garden Valley School,,"Quail Run Garden Valley, ID 83622",ID,83622,2084623756,3/30/2020,6/1/2020,,,,,,,44.1594716,-115.9652233
Bus Route Feeding Route to Garden Valley School,,"Smith Creek Rd Garden Valley, ID 83622",ID,83622,2084623756,3/30/2020,6/1/2020,,,,,,,44.15599810000001,-115.9621035
Bus Route Feeding Route to Garden Valley School,,"Veterinary Way Garden Valley, ID 83622",ID,83622,2084623756,3/30/2020,6/1/2020,,,,,,,44.146229,-115.9680181
Bus Route Feeding Route to Garden Valley School,,"Valley High Rd Garden Valley, ID 83622",ID,83622,2084623756,3/30/2020,6/1/2020,,,,,,,44.1388685,-115.9768532
Bus Route Feeding Route to Garden Valley School,,"Baker Rd Garden Valley, ID 83622",ID,83622,2084623756,3/30/2020,6/1/2020,,,,,,,44.134665,-115.9745978
Bus Route Feeding Route to Garden Valley School,,"Packer John Dr. Garden Valley, ID 83622",ID,83622,2084623756,3/30/2020,6/1/2020,,,,,,,44.1155907,-115.9753154
Bus Route Feeding Route to Garden Valley School,,"Starlight Mountain Theatre Garden Valley, ID 83622",ID,83622,2084623756,3/30/2020,6/1/2020,,,,,,,44.1121428,-115.9747522
Bus Route Feeding Route to Garden Valley School,,"1053 Banks Lowman Rd Garden Valley, ID 83622",ID,83622,2084623756,3/30/2020,6/1/2020,,,,,,,44.0909355,-115.9594491
Bus Stop - 39 Brownlee Rd,,"39 Brownlee Rd Horseshoe Bend, ID  83629",ID ,83629,2087932225,3/30/2020,6/30/2020,,,,,,,43.977416,-116.195907
Bus Stop - Harris Creek & Harleywood Blvd,,"Harris Creek & Harleywood Blvd Horseshoe Bend, ID  83629",ID ,83629,2087932225,3/30/2020,6/30/2020,,,,,,,43.8790272,-116.0703943
Bus Stop - Porter Creek & Zimmer Ln,,"Porter Creek & Zimmer Ln Horseshoe Bend, ID  83629",ID ,83629,2087932225,3/30/2020,6/30/2020,,,,,,,43.9557615,-116.1377857
Bus Stop 1,,"9936 W E ST, WORLEY ID 83876 Worley, ID 83876",ID,83876,2086862194,3/23/2020,6/30/2020,,,,,,,47.401469,-116.921652
Bus Stop 1,,"30203 S 1st  Street Worley Worley, ID 83876",ID,83876,2086862194,3/23/2020,6/30/2020,,,,,,,47.3969095,-116.9172317
Bus Stop 1,,"East of Pete Silas Road on Bald Eagle Lane Worley, ID 83876",ID,83876,2086862194,3/23/2020,6/30/2020,,,,,,,47.3950094,-116.9156934
Bus Stop 1,,"East of Pete Silas Road on Red Tail Hawk Lane Worley, ID 83876",ID,83876,2086862194,3/23/2020,6/30/2020,,,,,,,47.3950094,-116.9156934
Bus Stop 2,,"1005 8th Street Plummer, ID 83851",ID,83851,2086862194,3/23/2020,6/30/2020,,,,,,,47.32628930000001,-116.8853398
Bus Stop 2,,"281 G Street Plummer, ID 83851",ID,83851,2086862194,3/23/2020,6/30/2020,,,,,,,47.330759,-116.877179
Bus Stop 2,,"520 C Street Plummer, ID 83851",ID,83851,2086862194,3/23/2020,6/30/2020,,,,,,,47.3357584,-116.8815588
Bus Stop 3,,"382119 US-95 Tensed, ID 83870",ID,83870,2086862194,3/23/2020,6/30/2020,,,,,,,47.16020109999999,-116.9231788
Bus Stop 3,,"Old Agency Loop Road OFF Agency Plummer, ID 83851",ID,83851,2086862194,3/23/2020,6/30/2020,,,,,,,47.3125279,-116.9558323
Bus  Stop 3,,"111 Byrnes Avenue Desmet, ID 83824",ID,83824,2086862194,3/23/2020,6/30/2020,,,,,,,47.1459787,-116.9162023
Bussing Route (Cheney Bus),,"1800 E Ave W Gooding, ID 83330",ID,83330,2089344321,3/17/2020,6/30/2020,,,,,,,42.9458349,-114.7325428
Bust Stop 1,,"3rd and H Street Worley Worley, ID 83876",ID,83876,2086862194,3/23/2020,6/30/2020,,,,,,,47.3986604,-116.9203701
Caldwell High School,,"3401 South Indiana Caldwell, ID 83605",ID,83605,2084553331,3/18/2020,6/30/2020,,,,,,,43.6390396,-116.6689815
Caldwell Park,,"S 8th Avenue and E Center Street Pocatello, ID 83201",ID,83201,2082353256,3/25/2020,5/30/2020,,,,,,,42.8684634,-112.4404557
Canyon Elementary School,,"27491 E Schoolhouse Loop Cataldo, ID 83810",ID,83810,2087841348,3/23/2020,4/3/2020,,,,,,,47.575558,-116.413604
Carey School,,"20 Panther Lane Carey , ID 83320",ID,83320,2085785000,3/18/2020,4/3/2020,,,,,,,43.3137389,-113.9431188
Castleford School,,"500 Main Street Castleford, ID 83321",ID,83321,2085376511208,3/30/2020,6/30/2020,,,,,,,42.5210144,-114.8748492
Centennial Elementary School,,"522 Mason Ln Nampa, ID 83651",ID,83651,2084684607,3/30/2020,4/21/2020,,,,,,,43.563766,-116.5826064
Centerville Fire Dept.,,"115 Grimes Pass Rd. Idaho City , ID 83631",ID,83631,2083924183,3/30/2020,6/30/2020,,,,,,,43.894567,-115.904735
Central Elementary,,"1415 5th St S Nampa, ID 83651",ID,83651,2084684607,3/30/2020,4/21/2020,,,,,,,43.5734535,-116.5619901
Challis Elementary,,"950 Bluff Ave Challis, ID 83226",ID,83226,2088332123,3/30/2020,5/22/2020,,,,,,,44.5073539,-114.2300726
Chief Joseph School of Arts,,"1100 E Chateau Dr. Meridian, ID 83642",ID,83642,2083505109,3/20/2020,6/30/2020,,,,,,,43.625926,-116.380089
Clark Fork Jr/Sr School,,"502 North Main St. Clark Fork, ID 83811",ID,83811,20826321841018,3/19/2020,6/30/2020,,,,,,,48.1470577,-116.1771981
Clear Creek/Pole Yard Bus Route ,,"413 Main St Kooskia, ID 83539",ID,83539,2089830990,3/19/2020,6/30/2020,,,,,,,46.1348231,-115.9777271
Clear Creek/Pole Yard Bus Route ,,"257 Thenon St. Kooskia, ID 83539",ID,83539,2089830990,3/19/2020,6/30/2020,,,,,,,46.138746,-115.9813244
Clear Creek/Pole Yard Bus Route ,,"301 Thenon Street Kooskia, ID 83539",ID,83539,2089830990,3/19/2020,6/30/2020,,,,,,,46.1364131,-115.981987
Clear Creek/Pole Yard Bus Route ,,"306 Pine St. Kooskia, ID 83539",ID,83539,2089830990,3/19/2020,6/30/2020,,,,,,,46.1461422,-115.9744269
Clear Creek/Pole Yard Bus Route ,,"412 Toll Rd Kooskia, ID 83539",ID,83539,2089830990,3/19/2020,6/30/2020,,,,,,,46.12297419999999,-115.9451719
Clear Creek/Pole Yard Bus Route ,,"1251 Clearcreek Road Kooskia, ID 83539",ID,83539,2089830990,3/19/2020,6/30/2020,,,,,,,46.0937018,-115.9364797
Clear Creek/Pole Yard Bus Route ,,"Intersection Clearcreek Road and Elk Meadows Road Kooskia, ID 83539",ID,83539,2089830990,3/19/2020,6/30/2020,,,,,,,46.086012,-115.9145645
Clear Creek/Pole Yard Bus Route ,,"833 Clearcreek Road Kooskia, ID 83539",ID,83539,2089830990,3/19/2020,6/30/2020,,,,,,,46.0752373,-115.880982
Clear Creek/Pole Yard Bus Route ,,"689 Clear Creek Kooskia, ID 83539",ID,83539,2089830990,3/19/2020,6/30/2020,,,,,,,46.064392,-115.8833215
Clear Creek/Pole Yard Bus Route ,,"624 Clearcreek Rd Kooskia, ID 83539",ID,83539,2089830990,3/19/2020,6/30/2020,,,,,,,46.0611346,-115.8770608
Clear Creek/Pole Yard Bus Route ,,"UPPER CLEAR CREEK BRIDGE Kooskia, ID 83539",ID,83539,2089830990,3/19/2020,6/30/2020,,,,,,,46.1448942,-115.9779189
Clear Creek/Pole Yard Bus Route ,,"235 Cedar Creek Road Kooskia, ID 83539",ID,83539,2089830990,3/19/2020,6/30/2020,,,,,,,46.0573708,-115.8715131
Clearwater Bus Route,,"108 Sallyann Road Clearwater, ID 83552",ID,83552,2089830990,3/19/2020,6/30/2020,,,,,,,46.0156667,-115.9258152
Clearwater Bus Route,,"Intersection ELK CITY WAGON ROAD and Jacks Road Clearwater, ID 83552",ID,83552,2089830990,3/19/2020,6/30/2020,,,,,,,45.859348,-115.520327
Clearwater Bus Route,,"Intersection Pleasant Valley Rd and JERICO ROAD Clearwater, ID 83552",ID,83552,2089830990,3/19/2020,6/30/2020,,,,,,,46.030406,-115.918219
Clearwater Bus Route,,"716 Pleasant Valley Loop Clearwater Clearwater, ID 83552",ID,83552,2089830990,3/19/2020,6/30/2020,,,,,,,46.0343015,-115.9124684
Clearwater Bus Route,,"603 PLEASANT VALLEY Clearwater, ID 83552",ID,83552,2089830990,3/19/2020,6/30/2020,,,,,,,46.03737049999999,-115.9102328
Clearwater Bus Route,,"Intersection JAMES RD and Pleasant Valley Rd Clearwater, ID 83552",ID,83552,2089830990,3/19/2020,6/30/2020,,,,,,,46.030406,-115.918219
Clearwater Bus Route,,"Intersection Pleasant Valley and Brotnov Rd Clearwater, ID 83552",ID,83552,2089830990,3/19/2020,6/30/2020,,,,,,,46.034018,-115.9447597
Clearwater Bus Route,,"293 Pleasant Valley Road Clearwater, ID 83552",ID,83552,2089830990,3/19/2020,6/30/2020,,,,,,,46.03076590000001,-115.9217488
Clearwater Valley Elementary,,"306 E. Pine St Kooskia, ID 83539",ID,83539,2089830990,3/19/2020,6/30/2020,,,,,,,46.1461422,-115.9744269
Cloverdale Elementary,,"3999 Greenwillow Idaho Falls, ID 83401",ID,83401,2082279671,3/16/2020,6/30/2020,,,,,,,43.504295,-111.9533557
Compass Charter - Elementary,,"2511 W Cherry Lane Meridian, ID 83642",ID,83642,2089228813,4/6/2020,4/30/2020,,,,,,,43.6188549,-116.4245769
Compass Charter - Secondary,,"4667 W Aviator Street Meridian, ID 83642",ID,83642,2089228813,4/6/2020,4/30/2020,,,,,,,43.607534,-116.4523081
Cottonwood Elementary,,"3955 E 200 N Rigby, ID 83442",ID,83442,2087456693,3/18/2020,4/3/2020,,,,,,,43.65646479999999,-111.9094677
Council Mini Storage,,"204 4th Ave Council, ID 83612",ID,83612,2082534223,3/30/2020,4/30/2020,,,,,,,44.734472,-116.432935
Council Valley Assembly of God,,"500 W Whiteley Council, ID 83612",ID,83612,2082534223,3/30/2020,4/30/2020,,,,,,,44.730708,-116.4310887
Country Chalet Mobile Home Park,,"12427 Hwy 75 Ketchum, ID 83353",ID,83353,2085785000,3/18/2020,4/3/2020,,,,,,,43.6555043,-114.3496652
Country Village Trailer Park,,"Woodbridge St & Country Village Ave Caldwell, ID 83605",ID,83605,2084553331,3/18/2020,6/30/2020,,,,,,,43.6396635,-116.6624015
County Line Farms Housing/North Pleasant Valley,,"County Line Road and North Pleasant Vally Road American Falls, ID 83211",ID,83211,2082214830,3/30/2020,5/1/2020,,,,,,,42.8712037,-113.007774
Crooked Bridge,,"1750 E 1700 S Gooding, ID 83330",ID,83330,2089344321,3/18/2020,6/30/2020,,,,,,,42.9534442,-114.7426503
Cuddle Bug Day Care,,"400 Main St. Payette, ID 83661",ID,83661,2086424751,3/18/2020,3/30/2020,,,,,,,44.0703667,-116.9353396
D.D. Stalker Elementary,,"991 W Center St Blackfoot, ID 83221",ID,83221,2087858861,3/23/2020,4/3/2020,,,,,,,43.1882959,-112.3631898
Deary School ,,"502 1st Avenue Deary, ID 83823",ID,83823,2088771151,3/23/2020,3/27/2020,,,,,,,46.79775420000001,-116.5589507
Declo Elementary School,,"120 East Main St. Declo, ID 83323",ID,83323,2088786626,3/30/2020,4/3/2020,,,,,,,42.5183522,-113.6252463
Desert Sage Elementary,,"9325 W Mossywood St Meridian, ID 83709",ID,83709,2083505109,3/24/2020,6/30/2020,,,,,,,43.5385359,-116.2970002
Dietrich School,,"406 N Park St. Dietrich, ID 83324",ID,83324,2085442158,3/23/2020,4/3/2020,,,,,,,42.9128688,-114.2632706
Dog Creek Road,,"1800 E 1300 S Gooding, ID 83330",ID,83330,2089344321,3/18/2020,6/30/2020,,,,,,,43.0117407,-114.7317533
Donnelly Elementary,,"327 E Roseberry Rd Donnelly, ID  83615",ID ,83615,2086305003,3/30/2020,6/30/2020,,,,,,,44.7307612,-116.0767435
Dora Erickson Elementary School,,"940 Garfield St Idaho Falls, ID 83401",ID,83401,2085257532,3/18/2020,6/30/2020,,,,,,,43.4996569,-112.0129929
Driggs Elementary,,"265 LeGrande Pierre Ave Driggs, ID 83422",ID,83422,2082285723,3/17/2020,4/20/2020,,,,,,,43.7375473,-111.0909504
Eagle Rock Middle School,,"2020 Pancheri Drive Idaho Falls, ID 83402",ID,83402,2085257532,3/18/2020,6/30/2020,,,,,,,43.4902996,-112.0719962
Early Childhood Center,,"260 W Main Rigby, ID 83442",ID,83442,2087456693,3/18/2020,4/3/2020,,,,,,,43.6721659,-111.920629
East Elementary,,"775 N 10th E St Mountain Home, ID 83647",ID,83647,2085872580,3/30/2020,6/30/2020,,,,,,,43.1368567,-115.6882391
East Hwy 26,,"2200 East Hwy 26 Gooding, ID 83330",ID,83330,2089344321,3/18/2020,6/30/2020,,,,,,,42.9464075,-114.6535419
East Minico Middle School,,"1805 H Street Rupert, ID 83350",ID,83350,2084363625,3/18/2020,3/20/2020,,,,,,,42.6312079,-113.6786994
East Park,,"3rd St E & Illinois St Gooding, ID 83330",ID,83330,2089344321,3/18/2020,6/30/2020,,,,,,,42.94273219999999,-114.704189
Edahow Elementary School,,"2020 Pocatello Creek Road Pocatello, ID 83201",ID,83201,2082353256,3/25/2020,5/30/2020,,,,,,,42.8980651,-112.4248289
Eden Post Office,,"220 Wilson St East Eden, ID 83325",ID,83325,2088294107,3/31/2020,6/30/2020,,,,,,,42.6057946,-114.2088776
Elevate Academy,,"114 W. Chicago St Caldwell, ID 83605",ID,83605,2087794086,3/17/2020,6/30/2020,,,,,,,43.6745452,-116.6913375
Eliza Hart Spalding Stem Academy,,"12311 W Braddock Dr. Boise, ID 83709",ID,83709,2083505109,3/20/2020,6/30/2020,,,,,,,43.5988346,-116.3372701
Elk River Community Center,,"35133 Dent Bridge Rd Elk River, ID  83827",ID ,83827,2088771154,3/23/2020,3/27/2020,,,,,,,46.6492803,-116.1977863
Ellis ELementary School,,"550 Whitaker Rd Pocatello, ID 83202",ID,83202,2082353256,3/25/2020,5/30/2020,,,,,,,42.91594920000001,-112.4560388
Emerson Alternative High School,,"333 5th St Idaho Falls, ID 83401",ID,83401,2085257532,3/18/2020,6/30/2020,,,,,,,43.4936639,-112.0277992
Emmett Middle School,,"301 East 4th St. Emmett, ID 83617",ID,83617,2083654084,3/19/2020,5/29/2020,,,,,,,43.8714989,-116.4969581
Endeavor Elementary,,"2824 E Victory Rd Nampa, ID 83687",ID,83687,2084684607,3/30/2020,4/21/2020,,,,,,,43.5772567,-116.5351591
Evergreen Apartments,,"2150 Main St. Gooding, ID 83330",ID,83330,2089344321,3/18/2020,6/30/2020,,,,,,,42.9253,-114.7121599
Exeter,,"1774 S Exeter St Council, ID 83612",ID,83612,2082534223,3/30/2020,4/30/2020,,,,,,,44.69848959999999,-116.4202378
Fairview Elementary,,"979 E 97 N Idaho Falls, ID 83401",ID,83401,2082279671,3/16/2020,6/30/2020,,,,,,,43.5830692,-112.0146419
Falls Valley Elementary,,"2455 Virolow Dr. Idaho Falls, ID 83401",ID,83401,2082279671,3/16/2020,6/30/2020,,,,,,,43.4978259,-111.985047
Family Dollar Parking Lot,,"370 S. E. Street Grangeville, ID 83530",ID,83530,2089830990,3/19/2020,6/30/2020,,,,,,,45.9246876,-116.1321184
Famin Stidwell Elementary School,,"1626 Spruce St. Sandpoint, ID 83864",ID,83864,20826321841018,3/19/2020,6/30/2020,,,,,,,48.28280179999999,-116.5717624
Farmway Village Apartments,,"22730 Farmway Caldwell, ID 83607",ID,83607,2084553331,3/18/2020,6/30/2020,,,,,,,43.70219480000001,-116.7126715
Fernan Elementary,,"520 21st Ave Coeur d' Alene, ID  83814",ID ,83814,2089290220,3/23/2020,6/30/2020,,,,,,,47.67711329999999,-116.7553046
Filer Elementary School,,"700 Stevens Avenue Filer, ID 83328",ID,83328,2082932883,3/30/2020,6/30/2020,,,,,,,42.5669689,-114.6151956
Fire Station Camp,,"Nine Rd. Bonners Ferry, ID 83805",ID,83805,2082675519,3/23/2020,5/31/2020,"M,T,W,Th",,,,,,48.8491951,-116.2885301
Fort Hall Elementary,,"1415 B Ave Pocatello, ID 83202",ID,83202,2087858861,3/23/2020,4/3/2020,,,,,,,43.0336267,-112.4387654
Foster Farm Bus Stop,,"1287 Larson Rd Mullan, ID 83846",ID,83846,2087441118,3/19/2020,6/30/2020,,,,,,,47.470285,-115.7421372
Frank Church High School,,"8051 W Salt Creek Ct Boise , ID 83709",ID,83709,2088544067,3/23/2020,6/30/2020,,,,,,,43.5706128,-116.2822464
Frontier Elementary,,"11851 W Musket Dr. Boise, ID 83713",ID,83713,2083505109,3/20/2020,6/30/2020,,,,,,,43.6391214,-116.3298976
Gannett Fire Station,,"803 Main St. Gannett, ID 83313",ID,83313,2085785000,3/18/2020,4/3/2020,,,,,,,43.4769487,-114.2678156
Garden Grove Estates/Shannon Drive,,"Intersection Garden Road and Shannon Drive American Falls, ID 83211",ID,83211,2082214830,3/30/2020,5/1/2020,,,,,,,42.766182,-112.787683
Garfield Elementary,,"1914 Broadway Ave Boise , ID 83706",ID,83706,2088544067,3/23/2020,6/30/2020,,,,,,,43.5892916,-116.193019
Genesee School,,"330 W Ash Street Genesee, ID 83832",ID,83832,2082851161206,4/6/2020,4/17/2020,,,,,,,46.5519156,-116.9294594
Georgetown Elementary,,"142 Stringtown Rd. Georgetown, ID 83239",ID,83239,2084067771,3/17/2020,3/26/2020,,,,,,,42.4781446,-111.36961
Gibble Farm Bus Stop,,"1316 Larson Rd Mullan, ID 83846",ID,83846,2087441118,3/19/2020,6/30/2020,,,,,,,47.4675164,-115.7348579
Glenns Ferry School District,,"639 N Bannock St Glenns Ferry, ID 83623",ID,83623,2083662053,4/1/2020,4/8/2020,,,,,,,42.95685779999999,-115.3085505
Gooding Elementary,,"1045 7th Ave W Gooding , ID 83330",ID,83330,2089344321,3/17/2020,6/30/2020,,,,,,,42.9376674,-114.7260364
Gooding High School,,"1050 7th Ave W Gooding , ID 83330",ID,83330,2089344321,3/17/2020,6/30/2020,,,,,,,42.9385072,-114.7260607
Gooding Middle School,,"1047 7th Ave W Gooding , ID 83330",ID,83330,2089344321,3/17/2020,6/30/2020,,,,,,,42.9385084,-114.7250445
Government Road Area,,"Intersection Syphon and Government Road American Falls, ID 83211",ID,83211,2082214830,3/30/2020,5/1/2020,,,,,,,42.7860226,-112.8544377
Grace Jordan Elementary,,"6411 Fairfield Ave Boise , ID 83709",ID,83709,2088544067,3/23/2020,6/30/2020,,,,,,,43.5918796,-116.2620938
Grace Jr/Sr High School,,"704 S. Main Street Grace , ID 83241",ID,83241,2083170483,3/18/2020,6/30/2020,,,,,,,42.57030899999999,-111.7313353
Grangeville Elementary/Middle School,,"400 S. Idaho St Grangeville, ID 83530",ID,83530,2089830990,3/19/2020,6/30/2020,,,,,,,45.9234334,-116.1265649
Greenacres Elementary School,,"1250 East Oak St Pocatello, ID 83201",ID,83201,2082353256,3/25/2020,5/30/2020,,,,,,,42.8777158,-112.4371276
Groveland Elementary,,"375 W 170 N Blackfoot, ID 83221",ID,83221,2087858861,3/23/2020,4/3/2020,,,,,,,43.2206999,-112.3714801
Hacker Middle School,,"550 E Jackson St Mountain Home, ID 83647",ID,83647,2085872580,3/30/2020,6/30/2020,,,,,,,43.1333347,-115.6895576
Hagerman Elementary School,,"324 N 2nd Avenue Hagerman, ID 83332",ID,83332,2088374777,3/30/2020,6/30/2020,,,,,,,42.8184533,-114.9010603
Hailey Elementary,,"520 S 1st Ave Hailey , ID 83333",ID,83333,2085785000,3/18/2020,4/3/2020,,,,,,,43.5158522,-114.3101775
Hamer Elementary School,,"2450 E 2100 N Hamer, ID 83425",ID,83425,2086636017,3/18/2020,4/3/2020,,,,,,,43.9254721,-112.2085978
Hansen High School,,"550 Main St S Hansen, ID 83334",ID,83334,2084235475,3/30/2020,4/30/2020,,,,,,,42.528104,-114.301147
Hardy Estates,,"3406 Saddlehorn Way Caldwell, ID 83605",ID,83605,2084553331,3/18/2020,6/30/2020,,,,,,,43.6474658,-116.6568894
Harrison Elementary School,,"600 Harrison Twin Falls, ID 83301",ID,83301,2087330134,3/30/2020,4/30/2020,,,,,,,42.5732613,-114.4690613
Harvest Foods,,"800 Bank St Wallace , ID 83873",ID,83873,2087441118,3/19/2020,6/30/2020,,,,,,,47.4713363,-115.920942
Hawthorne Elementary,,"2401 W Targee St Boise , ID 83705",ID,83705,2088544067,3/23/2020,6/30/2020,,,,,,,43.5818555,-116.2108255
Hawthorne Elementary School,,"1520 South Blvd Idaho Falls, ID 83402",ID,83402,2085257532,3/18/2020,6/30/2020,,,,,,,43.4839,-112.034887
Hawthorne Park,,"W Eldredge Rd and Conlin Rd Pocatello, ID 83201",ID,83201,2082353256,3/25/2020,5/30/2020,,,,,,,42.894982,-112.473542
Hazelton City Park,,"298 East 900 South Hazelton, ID 83335",ID,83335,2088294107,3/31/2020,6/30/2020,,,,,,,42.5910276,-114.1359308
Heartland High School,,"124 Idaho St McCall, ID  83638",ID ,83638,2086305003,3/30/2020,6/30/2020,,,,,,,44.9072356,-116.1024844
Helmer Store & Cafe,,"5588 ID - 8 Deary, ID 83823",ID,83823,2088771153,3/23/2020,3/27/2020,,,,,,,46.80119089999999,-116.4705541
Henry's Fork Elementary,,"425 N 3rd W St. Anthony, ID 83445",ID,83445,2086247542,3/23/2020,4/20/2020,,,,,,,43.9713755,-111.687069
Heritage Community Charter School,,"1803 E. Ustick Rd Caldwell, ID 83605",ID,83605,2084538070,3/30/2020,6/30/2020,,,,,,,43.6345761,-116.6766259
Heyburn Elementary,,"1405 Main Ave St. Maries, ID 83861",ID,83861,2082451309,3/23/2020,6/30/2020,,,,,,,47.31606470000001,-116.575167
Highway 12 Bus Route,,"104 South Main Kooskia, ID 83539",ID,83539,2089830990,3/19/2020,6/30/2020,,,,,,,46.13872689999999,-115.9790426
Highway 12 Bus Route,,"Intersection HWY 12 and HWY 13 Kooskia, ID 83539",ID,83539,2089830990,3/19/2020,6/30/2020,,,,,,,46.1484435,-115.9820463
Highway 12 Bus Route,,"Intersection HWY 12 and Hale Rd Kooskia, ID 83539",ID,83539,2089830990,3/19/2020,6/30/2020,,,,,,,46.15692199999999,-115.991192
Highway 12 Bus Route,,"103 S. Front  Rd. (HWY 12) Kamiah, ID 83539",ID,83539,2089830990,3/19/2020,6/30/2020,,,,,,,46.2290472,-116.0292728
Highway 12 Bus Route,,"HWY 12 - MP 77 Kooskia, ID 83539",ID,83539,2089830990,3/19/2020,6/30/2020,,,,,,,46.14880669999999,-115.9810576
Highway 12 Bus Route,,"HWY 12 - MP 80 Kooskia, ID 83539",ID,83539,2089830990,3/19/2020,6/30/2020,,,,,,,46.14880669999999,-115.9810576
Highway 12 Bus Route,,"HWY 12 - MP 80.5 Kooskia, ID 83539",ID,83539,2089830990,3/19/2020,6/30/2020,,,,,,,46.14880669999999,-115.9810576
Highway 12 Bus Route,,"HWY 12- MP 81 Kooskia, ID 83539",ID,83539,2089830990,3/19/2020,6/30/2020,,,,,,,46.14880669999999,-115.9810576
Highway 12 Bus Route,,"HWY 12- MP 84 Kooskia, ID 83539",ID,83539,2089830990,3/19/2020,6/30/2020,,,,,,,46.14880669999999,-115.9810576
Highway 12 Bus Route,,"Intersection Smith Creek and HWY 12 Kooskia, ID 83539",ID,83539,2089830990,3/19/2020,6/30/2020,,,,,,,46.1365389,-115.7514991
Highway 12 Bus Route,,"115 Selway Road Kooskia, ID 83539",ID,83539,2089830990,3/19/2020,6/30/2020,,,,,,,46.143381,-115.596827
Hill Top Restaurant Parking Lot,,"41845 Silver Valley Road Kingston, ID 83839",ID,83839,2087841348,3/23/2020,4/3/2020,,,,,,,47.5495277,-116.2964996
Hillcrest Elementary,,"2045 S Pond St Boise , ID 83705",ID,83705,2088544067,3/23/2020,6/30/2020,,,,,,,43.5839057,-116.241784
Hillcrest Elementary School,,"1045 Bennett American Falls, ID 83211",ID,83211,2082214830,3/30/2020,5/1/2020,,,,,,,42.7751121,-112.8563225
Hillview Elementary,,"3075 Teton St Ammon, ID 83406",ID,83406,2082279671,3/16/2020,6/30/2020,,,,,,,43.4754059,-111.972332
Hollister Elementary School,,"2463 Contact Avenue Twin Falls, ID 83301",ID,83301,2082932883,3/30/2020,6/30/2020,,,,,,,42.3563628,-114.5893022
Hollypark Drive and Huckelberry Street Intersection,,"Hollypark Drive & Huckelberry Street Idaho Falls, ID 83401",ID,83401,2085257532,3/18/2020,6/30/2020,,,,,,,43.5128508,-112.0062449
Homedale Elementary,,"420 W Washington Homedale, ID 83628",ID,83628,2083374033,3/30/2020,4/30/2020,"M,T,W,Th",,,,,,43.62102790000001,-116.9422728
Hope House of Boundary County,,"5100 Camelot Rd Moyie Springs, ID 83847",ID,83847,2082675519,3/23/2020,5/31/2020,"M,T,W,Th",,,,,,48.7263285,-116.1885283
Horizon Elementary,,"730 N Mitchell St Boise , ID 83704",ID,83704,2088544067,3/23/2020,6/30/2020,,,,,,,43.611556,-116.3031148
Horizon Food Service Bus Route #1,,"S Goldking Way & S Smoke Ranch Dr. Boise, ID 83709",ID,83709,2088544067,3/23/2020,6/30/2020,,,,,,,43.5884921,-116.3066888
Horizon Food Service Bus Route #1,,"W Hackamore Dr. & W Martingale Dr. Boise, ID 83709",ID,83709,2088544067,3/23/2020,6/30/2020,,,,,,,43.5954674,-116.3053515
Horizon Food Service Bus Route #1,,"W Shoup Ave & Dalton Ln Boise, ID 83709",ID,83709,2088544067,3/23/2020,6/30/2020,,,,,,,43.5993541,-116.2956575
Horizon Food Service Bus Route #1,,"730 N Mitchell St Boise, ID 83704",ID,83704,2088544067,3/23/2020,6/30/2020,,,,,,,43.611556,-116.3031148
Horizon Food Service Bus Route #2,,"S Bird St & W Hackamore Dr. Boise, ID 83709",ID,83709,2088544067,3/23/2020,6/30/2020,,,,,,,43.595045,-116.2890692
Horizon Food Service Bus Route #2,,"W Shoup Dr. & S Pine Tree Ln (by park) Boise, ID 83709",ID,83709,2088544067,3/23/2020,6/30/2020,,,,,,,43.5993553,-116.2946951
Horizon Food Service Bus Route #2,,"W Irving St & N Maple Grove Boise, ID 83709",ID,83709,2088544067,3/23/2020,6/30/2020,,,,,,,43.6158651,-116.2941071
Hornet Creek,,"4256 Landore Rd Bear, ID 83612",ID,83612,2082534223,3/30/2020,4/30/2020,,,,,,,45.0569825,-116.6515265
Horseshoe Bend Elementary School,,"398 School Rd Horseshoe Bend, ID  83629",ID ,83629,2087932225,3/30/2020,6/30/2020,,,,,,,43.9089209,-116.2014029
Horseshoe Bend Park,,"112 Ada Street Horseshoe Bend, ID  83629",ID ,83629,2087932225,3/30/2020,6/30/2020,,,,,,,43.91388449999999,-116.1979415
Hunt Road Area,,"Intersection Hunt Road and Lake Channel Road American Falls, ID 83211",ID,83211,2082214830,3/30/2020,5/1/2020,,,,,,,42.70264,-113.0618721
I T Stoddard Elementary,,"460 York Dr Blackfoot, ID 83221",ID,83221,2087858861,3/23/2020,4/3/2020,,,,,,,43.1800827,-112.3449204
IB Perrine Elementary School,,"452 Caswell Ave W Twin Falls, ID 83301",ID,83301,2087330134,3/30/2020,4/30/2020,,,,,,,42.5755231,-114.4879277
Idaho Army National Guard,,"1920 Center Ave Payette, ID 83661",ID,83661,2086424751,3/18/2020,3/30/2020,,,,,,,44.0747455,-116.9193484
Idaho Hill Elementary School,,"402 East 3rd Street Oldtown, ID 83822",ID,83822,20844844365,3/23/2020,6/30/2020,,,,,,,48.1790015,-117.0347038
Independence High School,,"155 E Francis St Blackfoot, ID 83221",ID,83221,2087858861,3/23/2020,4/3/2020,,,,,,,43.1899982,-112.3392225
Indian Creek Estates,,"5016 East Ustick Rd. Caldwell, ID 83605",ID,83605,2084553331,3/18/2020,6/30/2020,,,,,,,43.633178,-116.634976
Indian Hills Bus Route,,"505 Indian Hills Moscow , ID 83843",ID,83843,2088921123,3/24/2020,4/3/2020,,,,,,,46.72011800000001,-116.9966133
Indian Hills Bus Route,,"Indian Hills and Atrirk Moscow , ID 83843",ID,83843,2088921123,3/24/2020,4/3/2020,,,,,,,46.7173363,-116.9860868
Indian Hills Bus Route,,"Pine Cone Rd & Travois Way Moscow , ID 83843",ID,83843,2088921123,3/24/2020,4/3/2020,,,,,,,46.72167289999999,-116.989986
Indian Hills Bus Route,,"Powers Ave and Nursery St. Moscow , ID 83843",ID,83843,2088921123,3/24/2020,4/3/2020,,,,,,,46.7164937,-116.9968804
Indian Hills Elementary School,,"666 Cheyenne Ave Pocatello, ID 83204",ID,83204,2082353256,3/25/2020,5/30/2020,,,,,,,42.820571,-112.40849
Iowa Elementary School,,"626 W. Iowa Ave Nampa, ID 83686",ID,83686,2084684607,3/30/2020,4/21/2020,,,,,,,43.5553471,-116.5839153
Irving Middle School,,"911 North Grant Ave Pocatello, ID 83204",ID,83204,2082353256,3/25/2020,5/30/2020,,,,,,,42.865333,-112.4620388
J.R. Simplot Elementary School,,"820 Tyhee Ave American Falls, ID 83211",ID,83211,2082214830,3/30/2020,5/1/2020,,,,,,,42.7794987,-112.854579
Jefferson Elementary,,"200 S Latah St Boise , ID 83705",ID,83705,2088544067,3/23/2020,6/30/2020,,,,,,,43.602124,-116.2271941
Jefferson Elementary School,,"1455 Gwen Dr. Pocatello, ID 83204",ID,83204,2082353256,3/25/2020,5/30/2020,,,,,,,42.8617462,-112.4700369
Jefferson Food Service Bus Route,,"W Morris Hil Rd. & N Chambers Ln Boise, ID 83706",ID,83706,2088544067,3/23/2020,6/30/2020,,,,,,,43.6079996,-116.2459662
Jefferson Food Service Bus Route,,"W Irving St & N Garden St. Boise, ID 83706",ID,83706,2088544067,3/23/2020,6/30/2020,,,,,,,43.6151956,-116.2384957
Jefferson Food Service Bus Route,,"S Garden St &  W Alpine St Boise, ID 83705",ID,83705,2088544067,3/23/2020,6/30/2020,,,,,,,43.6043239,-116.2384941
Jefferson Food Service Bus Route,,"200 S Latah St Boise, ID 83705",ID,83705,2088544067,3/23/2020,6/30/2020,,,,,,,43.602124,-116.2271941
Jefferson Food Service Bus Route,,"4600 W Camas St Boise, ID 83705",ID,83705,2088544067,3/23/2020,6/30/2020,,,,,,,43.5961536,-116.2390612
Jenifer Jr. High School,,"1213 16th St Lewiston , ID 83501",ID,83501,2087483064,3/16/2020,,,,,,,,46.4080311,-117.0087414
Jerome High School,,"104 Tiger Drive North Jerome , ID 83338",ID,83338,2082264278,3/23/2020,5/21/2020,,,,,,,42.7388351,-114.5020805
Jerome Middle School,,"520 10th Avenue West Jerome , ID 83339",ID,83339,2082264278,3/23/2020,5/21/2020,,,,,,,42.733868,-114.5261391
John V Evans Elementary School,,"3000 Parke Ave Burley, ID 83318",ID,83318,2088786626,3/30/2020,4/3/2020,,,,,,,42.5152386,-113.8036133
Juliaetta Elementary School,,"305 4th St Juliaetta, ID 83535",ID,83535,2082894211,3/23/2020,4/20/2020,,,,,,,46.5791193,-116.7083187
Kellogg Middle School,,"790 Bunker Avenue Kellogg, ID 83837",ID,83837,2087841348,3/23/2020,4/3/2020,,,,,,,47.54358879999999,-116.133794
Kendrick Jr/Sr High School,,"2001 State Hwy 3 Kendrick, ID 83537",ID,83537,2082894211,3/23/2020,4/20/2020,,,,,,,46.6192395,-116.6447517
Kenmare Trace Apartments,,"643 S 12th St. Payette, ID 83661",ID,83661,2086424751,3/18/2020,3/30/2020,,,,,,,44.0661201,-116.9273741
Kennedy Elementary,,"60 S 5th W. Rexburg, ID 83440",ID,83440,208359362,3/18/2020,3/28/2020,,,,,,,43.82472,-111.799825
Kimberly Elementary School,,"311 Main St South Kimberly , ID 83341",ID,83341,2084234170,3/23/2020,4/30/2020,,,,,,,42.5315449,-114.3663998
Kingston Kwik Stop,,"42980 Silver Valley Road Kingston, ID 83839",ID,83839,2087841348,3/23/2020,4/3/2020,,,,,,,47.5481227,-116.2724632
Koelsch Elementary,,"2015 N Curtis Rd Boise , ID 83706",ID,83706,2088544067,3/23/2020,6/30/2020,,,,,,,43.622485,-116.25529
Koelsch Food Service Bus Route,,"520 N Liberty St Boise, ID 83704",ID,83704,2088544067,3/23/2020,6/30/2020,,,,,,,43.609469,-116.259869
Koelsch Food Service Bus Route,,"N Allumbaugh St. & W Colehaven Dr. Boise, ID 83704",ID,83704,2088544067,3/23/2020,6/30/2020,,,,,,,43.6170593,-116.2662004
Koelsch Food Service Bus Route,,"Colehaven Dr. & N Liberty St. Boise, ID 83704",ID,83704,2088544067,3/23/2020,6/30/2020,,,,,,,43.616876,-116.2611504
Koelsch Food Service Bus Route,,"2015 N Curtis Rd Boise, ID 83706",ID,83706,2088544067,3/23/2020,6/30/2020,,,,,,,43.622485,-116.25529
Koelsch Food Service Bus Route,,"W Poplar St. & N Allumbaugh St Boise, ID 83704",ID,83704,2088544067,3/23/2020,6/30/2020,,,,,,,43.6233412,-116.2661557
Kootenai Elementary School,,"301 Sprague St. Kootenai, ID 83840",ID,83840,20826321841018,3/19/2020,6/30/2020,,,,,,,48.3114554,-116.517407
Kootenai School,,"13030 E O'Gara Road Harrison, ID 83833",ID,83833,2086893511,3/19/2020,6/30/2020,,,,,,,47.40038699999999,-116.671261
Kuna High School,,"637 Deer Flat Rd. Kuna, ID 83634",ID,83634,2089191104,3/19/2020,6/30/2020,,,,,,,43.5004689,-116.4062976
Lakeland Jr. High,,"15601 ID-41 Rathdrum, ID 83858",ID,83858,2086870431,3/18/2020,4/24/2020,,,,,,,47.8150147,-116.8862666
Lakes Middle School,,"930 N 15th Street Coeur d' Alene, ID  83814",ID ,83814,2089290220,3/23/2020,6/30/2020,,,,,,,47.6820958,-116.7659667
Lakeside Middle School,,"1255 E Street Plummer, ID 83851",ID,83851,2086862194,3/23/2020,6/30/2020,,,,,,,47.3328657,-116.8925126
Lakeview Apartments,,"586 South 1900 East Hazelton, ID 83335",ID,83335,2088294107,3/31/2020,6/30/2020,,,,,,,42.6090275,-114.1480211
Lakevue Elementary,,"12843 Cirrus Dr Nampa, ID 83651",ID,83651,2084549614,3/30/2020,5/29/2020,,,,,,,43.5963828,-116.6498024
Lapwai Elementary,,"170 Agency Rd. Lapwai, ID 83540",ID,83540,2087900988,3/17/2020,6/30/2020,,,,,,,46.3993167,-116.8038788
Lazy River Trailer Court,,"11595 N River Rd Payette, ID 83661",ID,83661,2086424751,3/18/2020,3/30/2020,,,,,,,44.1313052,-116.9099605
LDA Church Parking Lot,,"403 N. Blvd Grangeville, ID 83530",ID,83530,2089830990,3/19/2020,6/30/2020,,,,,,,45.927307,-116.1118524
Lena Whitmore Park,,"110 S Blaine St. Moscow , ID 83843",ID,83843,2088921123,3/24/2020,4/3/2020,,,,,,,46.7332946,-116.9853418
Lewis & Clark Elementary,,"1105 Laster Street Caldwell, ID 83607",ID,83607,2084553331,3/18/2020,6/30/2020,,,,,,,43.6262729,-116.6876452
Lewis & Clark Elementary School,,"800 Grace Dr. Pocatello, ID 83201",ID,83201,2082353256,3/25/2020,5/30/2020,,,,,,,42.8901247,-112.4605468
Lewis & Clark Middle School,,"4141 E Pine St. Meridian, ID 83642",ID,83642,2083505109,3/20/2020,6/30/2020,,,,,,,43.610214,-116.341619
Limelight Apartments,,"2013 Warm Springs Rd. Ketchum, ID 83333",ID,83333,2085785000,3/18/2020,4/3/2020,,,,,,,43.69095350000001,-114.3874066
Lincoln Elementary,,"1200 Grant St. Caldwell, ID 83605",ID,83605,2084553331,3/18/2020,6/30/2020,,,,,,,43.6581005,-116.6888494
Lincoln Elementary School,,"238 Buhl St. N Twin Falls, ID 83301",ID,83301,2087330134,3/30/2020,4/30/2020,,,,,,,42.5618484,-114.475752
Linden Park Elementary School,,"1305 9th Street Idaho Falls, ID 83404",ID,83404,2085257532,3/18/2020,6/30/2020,,,,,,,43.4901995,-112.0078544
Lindy Ross Elementary,,"526 S Oakley St Dubois, ID 83423",ID,83423,2085208099,3/18/2020,4/2/2020,,,,,,,44.1794353,-112.231159
Lower Ross Park,,"Riverside Dr and W Carson St Pocatello, ID 83201",ID,83201,2082353256,3/25/2020,5/30/2020,,,,,,,42.870195,-112.462608
Luke's Gulch Bus Route,,"215 Main Street Stites, ID 83552",ID,83552,2089830990,3/19/2020,6/30/2020,,,,,,,46.0914067,-115.9764749
Luke's Gulch Bus Route,,"Intersection LAZY J DRIVE And N. River Road Stites, ID 83552",ID,83552,2089830990,3/19/2020,6/30/2020,,,,,,,46.102583,-115.981458
Luke's Gulch Bus Route,,"729 Three Bear Lane Stites, ID 83552",ID,83552,2089830990,3/19/2020,6/30/2020,,,,,,,46.0915589,-115.9762528
Luke's Gulch Bus Route,,"221 Cottonwood Creek Road Stites, ID 83552",ID,83552,2089830990,3/19/2020,6/30/2020,,,,,,,46.0917152,-116.0072343
Luke's Gulch Bus Route,,"2157 Lukes Gulch Road Kooskia, ID 83539",ID,83539,2089830990,3/19/2020,6/30/2020,,,,,,,46.0464119,-115.9809749
Luke's Gulch Bus Route,,"2135 Lukes Gulch Road Kooskia, ID 83539",ID,83539,2089830990,3/19/2020,6/30/2020,,,,,,,46.0444279,-115.9803955
Luke's Gulch Bus Route,,"1881 Lukes Gulch Road Kooskia, ID 83539",ID,83539,2089830990,3/19/2020,6/30/2020,,,,,,,46.031757,-116.002406
Luke's Gulch Bus Route,,"1832 Lukes Gulch Road Stites, ID 83552",ID,83552,2089830990,3/19/2020,6/30/2020,,,,,,,46.0267862,-115.995628
M & W Market,,"122 5th Avenue West Gooding, ID 83330",ID,83330,2089344321,3/18/2020,6/30/2020,,,,,,,42.9408239,-114.7136536
Mackay School District,,"400 E Spruce St Mackay, ID 83251",ID,83251,2085882834,3/24/2020,4/2/2020,,,,,,,43.9078942,-113.608968
Madison High ,,"2300 University Blvd Rexburg, ID 83440",ID,83440,208359362,3/18/2020,3/28/2020,,,,,,,43.8058092,-111.8241263
Madison Jr. High,,"134 Madison Avenue Rexburg, ID 83440",ID,83440,208359362,3/18/2020,3/28/2020,,,,,,,43.8290258,-111.7694883
Madison Middle,,"575 W 7th St. Rexburg, ID 83440",ID,83440,208359362,3/18/2020,3/28/2020,,,,,,,43.8105158,-111.8011575
Magnolia Apartment Complex,,"3549 W. Magnolia Boise , ID  83703",ID ,83703,2088544067,3/23/2020,6/30/2020,,,,,,,43.6505628,-116.2316567
Main St. Mobile Home Park,,"2245 California St. Gooding, ID 83330",ID,83330,2089344321,3/17/2020,6/30/2020,,,,,,,42.9251944,-114.7159507
Main Street Trailer Park,,"2200 Main St Gooding, ID 83330",ID,83330,2089344321,3/18/2020,6/30/2020,,,,,,,42.9248747,-114.7128254
Malad Elementary School,,"250 W 400 N Malad, ID 83252",ID,83252,2085346080400,3/30/2020,4/10/2020,,,,,,,42.1948306,-112.2518401
Manchester & Beech Intersection,,"Manchester Dr & W Beech St Caldwell, ID 83605",ID,83605,2084553331,3/18/2020,6/30/2020,,,,,,,43.6424491,-116.7040457
Marsing City Park,,"425 W Main St Marsing, ID 83639",ID,83639,2086495411,3/18/2020,4/10/2020,,,,,,,43.5450463,-116.8084297
Marsing Elementary School,,"207 8th Ave West Hwy 78 Marsing, ID 83639",ID,83639,2086495411,3/18/2020,4/10/2020,,,,,,,43.54275639999999,-116.8127739
Marsing High School,,"209 8th Ave West Hwy 78 Marsing, ID 83639",ID,83639,2086495411,3/18/2020,4/10/2020,,,,,,,43.54347810000001,-116.8122275
Marsing Labor Camp,,"5758 ID-78 Marsing, ID 83639",ID,83639,2086495411,3/18/2020,4/10/2020,,,,,,,43.5341835,-116.81147
Marsing Middle School,,"209 8th Ave West Hwy 78 Marsing, ID 83639",ID,83639,2086495411,3/18/2020,4/10/2020,,,,,,,43.54347810000001,-116.8122275
Marsing/Homedale Cemetary,,"4444 Cemetery Rd. Marsing, ID 83639",ID,83639,2086495411,3/18/2020,4/10/2020,,,,,,,43.5452773,-116.8973545
McGhee Elementary,,"636 Warner Ave. Lewiston , ID 83501",ID,83501,2087483064,3/16/2020,,,,,,,,46.383587,-116.9979849
Meridian Elementary,,"1035 W 1st St Meridian, ID 83642",ID,83642,2086393165,3/19/2020,6/5/2020,,,,,,,43.6136954,-116.3962695
Meridian Middle School,,"1507 W 8th St. Meridian, ID 83642",ID,83642,2083505109,3/20/2020,6/30/2020,,,,,,,43.6176543,-116.4044068
Middleton Academy,,"200 S. Viking Ave Middleton, ID 83644",ID,83644,2085856700,3/17/2020,4/3/2020,,,,,,,43.7054925,-116.6268742
Midway Elementary,,"623 N 3470 E Menan, ID 83434",ID,83434,2087456693,3/18/2020,4/3/2020,,,,,,,43.7060934,-112.0061153
Mill Road Bus Stop,,"316 Mill Rd Mullan, ID 83846",ID,83846,2087441118,3/19/2020,6/30/2020,,,,,,,47.4663317,-115.8081601
Minidoka National Historical Site,,"Hunt Road Jerome, ID 83338",ID,83338,2088294107,3/31/2020,6/30/2020,,,,,,,42.6781139,-114.2134378
Monteview Church,,"2413 N 800 E Monteview, ID 83450",ID,83450,2086636017,3/20/2020,4/3/2020,,,,,,,43.973487,-112.541305
Moreland Elementary,,"185 N 750 W Moreland, ID 83256",ID,83256,2086843001,3/23/2020,6/30/2020,,,,,,,43.2241769,-112.4444343
Mores Creek Fire Dept.,,"128 Mores Creek Rim Rd. Boise, ID 83716",ID,83716,2083924183,3/30/2020,6/30/2020,,,,,,,43.651674,-115.978049
Morley Nelson Elementary,,"7701 W Northview St Boise , ID 83704",ID,83704,2088544067,3/23/2020,6/30/2020,,,,,,,43.6257712,-116.2790086
Morningside Elementary School,,"701 Morningside Twin Falls, ID 83301",ID,83301,2087330134,3/30/2020,4/30/2020,,,,,,,42.5576306,-114.4490003
Mountain Home High School,,"300 S 11th E Mountain Home, ID 83647",ID,83647,2085872580,3/30/2020,6/30/2020,,,,,,,43.129839,-115.6850439
Mountain Home Junior High School,,"1600 E 6th S St Mountain Home, ID 83647",ID,83647,2085872580,3/30/2020,6/30/2020,,,,,,,43.1279942,-115.68144
Mt. Hall Elementary School,,"1275 Highway 1 Bonners Ferry, ID 83805",ID,83805,2082675519,3/23/2020,5/31/2020,"M,T,W,Th",,,,,,48.6958728,-116.3069393
Mt. Harrison High School,,"1431 17th Street Heyburn, ID 83336",ID,83336,2084363625,3/18/2020,3/20/2020,,,,,,,42.5570563,-113.7633695
Mt. View Middle School,,"645 W 50 S Blackfoot, ID 83221",ID,83221,2087858861,3/23/2020,4/3/2020,,,,,,,43.1901065,-112.3319126
Mtn. View Trailer Park,,"2819 S Georgia Ave Caldwell, ID 83605",ID,83605,2084553331,3/18/2020,6/30/2020,,,,,,,43.645416,-116.666761
Mud Lake City Building,,"1005 E 1500 N Terreton, ID 83450",ID,83450,2086636017,3/20/2020,4/3/2020,,,,,,,43.84127609999999,-112.4946315
Mullan School District,,"345 Park St Mullan , ID 83846",ID,83846,2087441118,3/19/2020,6/30/2020,,,,,,,47.4692324,-115.797922
Murtaugh School District,,"500 Boyd West Murtaugh, ID 83344",ID,83344,2084325451,3/30/2020,6/30/2020,,,,,,,42.4925038,-114.1662831
Nampa Boys and Girls Club,,"316 Stampede Dr. Nampa, ID 83687",ID,83687,2086393165,3/19/2020,6/5/2020,,,,,,,43.5870818,-116.5463341
Naples Elementary School,,"145 School House Rd Naples, ID 83847",ID,83847,2082675519,3/23/2020,5/31/2020,"M,T,W,Th",,,,,,48.5720105,-116.3937567
New Horizon Center,,"955 W Alameda Pocatello, ID 83201",ID,83201,2082353256,3/25/2020,5/30/2020,,,,,,,42.8908044,-112.4706876
New Plymouth Elementary,,"704 S. Plymouth Avenue New Plymouth, ID 83655",ID,83655,2082785333128,3/30/2020,6/30/2020,,,,,,,43.9628679,-116.8206965
Nezperce School,,"614 2nd Avenue Nezperce, ID 83543",ID,83543,2089372551,3/19/2020,6/30/2020,,,,,,,46.2367916,-116.2416536
North Council,,"2264 Jonathan Ave Fruitvale, ID 83612",ID,83612,2082534223,3/30/2020,4/30/2020,,,,,,,44.8158025,-116.4402205
North Elementary,,"290 E 12th N Mountain Home, ID 83647",ID,83647,2085872580,3/30/2020,6/30/2020,,,,,,,43.1455815,-115.6987225
North Gate Trailer Park,,"1300 N 9th St Payette, ID 83661",ID,83661,2086424751,3/18/2020,3/30/2020,,,,,,,44.0883432,-116.9331647
North Pleasant Valley,,"3371 North Pleasant Valley Road American Falls, ID 83211",ID,83211,2082214830,3/30/2020,5/1/2020,,,,,,,42.848976,-112.9625415
North-Heifer Ranch,,"2050 E 1500 S Gooding, ID 83330",ID,83330,2089344321,3/17/2020,6/30/2020,,,,,,,42.9837305,-114.679826
Northwest Expedition Academy,,"9650 N Government Way Coeur d' Alene, ID  83814",ID ,83814,2089290220,3/23/2020,6/30/2020,,,,,,,47.7595857,-116.7857963
Notus Cafeteria,,"20250 Notus Road Caldwell, ID 83607",ID,83607,2084597442,3/30/2020,6/30/2020,,,,,,,43.6659193,-116.8027433
O.K. Ward Park,,"1400 W Quinn Rd Chubbuck, ID 83202",ID,83202,2082353256,3/25/2020,5/30/2020,,,,,,,42.9085362,-112.4826081
Oakley Elementary School,,"455 West Poplar St. Oakley, ID 83346",ID,83346,2088786626,3/30/2020,4/3/2020,,,,,,,42.2451215,-113.8889951
Old Garret Fgt. Parking,,"1424 3rd Ave S Payette, ID 83661",ID,83661,2086424751,3/18/2020,3/30/2020,,,,,,,44.0710653,-116.9254198
Old Pullman Highway Route,,"Taylor and Blake Moscow , ID 83843",ID,83843,2088921123,3/24/2020,4/3/2020,,,,,,,46.7226854,-117.0083761
Old Pullman Highway Route,,"2280 Old Pullman Highway Moscow , ID 83843",ID,83843,2088921123,3/24/2020,4/3/2020,,,,,,,46.7211175,-117.0342822
Old Pullman Highway Route,,"421 West Sweet Ave Moscow , ID 83843",ID,83843,2088921123,3/24/2020,4/3/2020,,,,,,,46.7250449,-117.004973
Oregon Trail Elementary School,,"660 Park Ave Twin Falls, ID 83301",ID,83301,2087330134,3/30/2020,4/30/2020,,,,,,,42.540858,-114.4663895
Orofino Elementary,,"1000 Michigan Ave Orofino, ID 83544",ID,83544,2084760500,3/23/2020,4/30/2020,,,,,,,46.4839255,-116.2441258
Orofino School District Bus Route,,"0 Orofino, ID 83544",ID,83544,2084760500,3/23/2020,4/30/2020,,,,,,,46.479347,-116.2551395
Orofino School District Bus Route,,"0 Weippe, ID 83553",ID,83553,2084760500,3/23/2020,4/30/2020,,,,,,,46.37601490000001,-115.9381946
Orofino School District Bus Route,,"0 Pierce, ID 83546",ID,83546,2084760500,3/23/2020,4/30/2020,,,,,,,46.4910207,-115.7990289
Orofino School District Bus Route,,"0 Lenore, ID 83541",ID,83541,2084760500,3/23/2020,4/30/2020,,,,,,,46.5007967,-116.540126
Paris Elementary,,"79 Fielding St Paris, ID 83261",ID,83261,2084067771,3/17/2020,3/26/2020,,,,,,,42.2264611,-111.3995585
Parma Middle School ,,"905 E. McConnell Ave Parma, ID 83660",ID,83660,20877940691414,3/30/2020,6/30/2020,,,,,,,43.7892824,-116.9361834
Paul Elementary,,"201 N 1st St. Paul, ID 83347",ID,83347,2084363625,3/18/2020,3/20/2020,,,,,,,42.607574,-113.785298
Payette Mobile Park,,"1520 N 6th St. Payette, ID 83661",ID,83661,2086424751,3/18/2020,3/30/2020,,,,,,,44.0908999,-116.938179
Payette Primary School,,"1320 3rd Ave N Payette, ID 83661",ID,83661,2086424751,3/18/2020,3/30/2020,,,,,,,44.0771946,-116.9271975
Pinehurst Elementary School,,"201 S 3rd Pinehurst, ID 83850",ID,83850,2087841348,3/23/2020,4/3/2020,,,,,,,47.537802,-116.2368538
Pingree Community Market Parking Lot,,"1505 W Highway 39 Pingree, ID 83262",ID,83262,2086843001,3/23/2020,6/30/2020,,,,,,,43.11731229999999,-112.5953281
Ponderosa Elementary School,,"3483 E. Ponderosa Blvd. Post Falls , ID  83854",ID ,83854,2087731625,3/19/2020,4/3/2020,,,,,,,47.7025449,-116.9022449
Popplewell Elementary School,,"200 6th St. Buhl, ID 83316",ID,83316,2085436648,3/30/2020,5/1/2020,,,,,,,42.6009254,-114.7545089
Post Falls High School,,"2832 E. Poleline Ave. Post Falls , ID  83854",ID ,83854,2087731625,3/19/2020,4/3/2020,,,,,,,47.7290152,-116.9079254
Potlatch Elementary,,"510 Elm St Potlatch, ID 83855",ID,83855,2088751331,3/20/2020,6/30/2020,,,,,,,46.9209989,-116.8951453
Potlatch Jr/Sr High School,,"130 6th St Potlatch, ID 83855",ID,83855,2088751331,3/20/2020,6/30/2020,,,,,,,46.9214097,-116.9018912
Preston High School,,"151 E 2nd St. Preston, ID 83263",ID,83263,2082406887,3/30/2020,6/30/2020,,,,,,,42.0930588,-111.8723841
Priest River Elementary School,,"231 Harriet Street Priest River, ID 83856",ID,83856,20844844365,3/23/2020,6/30/2020,,,,,,,48.1857409,-116.9112098
Priest River High School,,"5709 Hwy 2 Priest River, ID 83856",ID,83856,20844844365,3/23/2020,6/30/2020,,,,,,,48.1911575,-116.9182608
Raft River Elementary School,,"140 West Center Malta, ID 83342",ID,83342,2088786626,3/30/2020,4/3/2020,,,,,,,42.307382,-113.3736063
Ramsey Elementary,,"W 1351 Kathleen Ave Coeur d' Alene, ID  83814",ID ,83814,2089290220,3/23/2020,6/30/2020,,,,,,,47.7162635,-116.8043723
Ranch Bowl Bowling Alley,,"1730 Main St. Gooding, ID 83330",ID,83330,2089344321,3/18/2020,6/30/2020,,,,,,,42.9278282,-114.7118654
Raymond Park,,"N Grant Ave and W Carson St Pocatello, ID 83201",ID,83201,2082353256,3/25/2020,5/30/2020,,,,,,,42.868583,-112.465174
Reed Elementary School,,"1670 N Linder Rd. Kuna, ID 83635",ID,83635,2089191104,3/19/2020,6/30/2020,,,,,,,43.5046202,-116.4106207
Renaissance High School,,"1307 E Central Dr. Meridian, ID 83642",ID,83642,2083505109,3/20/2020,6/30/2020,,,,,,,43.5952709,-116.3779962
Ridge Crest Elementary,,"800 Airport Rd Blackfoot, ID 83221",ID,83221,2087858861,3/23/2020,4/3/2020,,,,,,,43.2026271,-112.3453044
Ridleys,,"Idaho St. & 9th Ave W Gooding, ID 83330",ID,83330,2089344321,3/18/2020,6/30/2020,,,,,,,42.936561,-114.714174
Ririe Elementary School ,,"260 1st West Ririe, ID 83443",ID,83443,2083177187,3/18/2020,6/30/2020,,,,,,,43.628908,-111.774495
River City Middle School,,"1505 N. Fir Street Post Falls , ID  83854",ID ,83854,2087731625,3/19/2020,4/3/2020,,,,,,,47.7242156,-116.9547677
Riverfront Park,,"508 E 42nd St. Garden City, ID 83714",ID,83714,2086393165,3/19/2020,6/5/2020,,,,,,,43.636233,-116.245594
Riverside Elementary,,"16 S 700 W Blackfoot, ID 83221",ID,83221,2086843001,3/23/2020,6/30/2020,,,,,,,43.1945122,-112.436045
Roberts Elementary,,"682 N 2858 E Roberts, ID 83444",ID,83444,2087456693,3/18/2020,4/3/2020,,,,,,,43.7250542,-112.1302615
Robie Creek Fire Dept.,,"349 Robie Creek Rd. Boise, ID 83716",ID,83716,2083924183,3/30/2020,6/30/2020,,,,,,,43.637741,-116.012733
Rockford Park,,"63 S 1200 W Blackfoot, ID 83221",ID,83221,2086843001,3/23/2020,6/30/2020,,,,,,,43.18726059999999,-112.5342607
Rockland School,,"321 E Center St Rockland, ID 83271",ID,83271,2085472221,3/30/2020,6/30/2020,,,,,,,42.5742578,-112.873165
Rocky Mountain Middle,,"3443 N Ammon Rd Idaho Falls, ID 83401",ID,83401,2082279671,3/16/2020,6/30/2020,,,,,,,43.5265903,-111.9652318
Rolling Hills Public Charter School,,"8300 Horseshoe Bend Road Boise, ID  83714",ID ,83714,6196543018,3/19/2020,6/30/2020,,,,,,,43.6856861,-116.3132945
Ross Elementary School,,"610 N School St. Kuna, ID 83636",ID,83636,2089191104,3/19/2020,6/29/2032,,,,,,,43.494332,-116.422308
Route #1: Enrose - Sand Hollow; stop 1.1,,"24761 Conway Road Caldwell, ID 83607",ID,83607,2084597442,3/30/2020,6/30/2020,,,,,,,43.7313431,-116.7933434
Route #1: Enrose - Sand Hollow; stop 1.10,,"19476 Market Rd Caldwell, ID 83607",ID,83607,2084597442,3/30/2020,6/30/2020,,,,,,,43.783004,-116.785169
Route #1: Enrose - Sand Hollow; stop 1.11,,"Corner of Dip Ln & Lon Davis Parma, ID 83660",ID,83660,2084597442,3/30/2020,6/30/2020,,,,,,,43.7709764,-116.8332907
Route #1: Enrose - Sand Hollow; stop 1.12,,"19583 Galloway Caldwell, ID 83607",ID,83607,2084597442,3/30/2020,6/30/2020,,,,,,,43.74721,-116.785246
Route #1: Enrose - Sand Hollow; stop 1.2  ,,"24248 Conway Road Caldwell, ID 83607",ID,83607,2084597442,3/30/2020,6/30/2020,,,,,,,43.7233168,-116.7908088
Route #1: Enrose - Sand Hollow; stop 1.3 ,,"24395 Hop Road Caldwell, ID 83607",ID,83607,2084597442,3/30/2020,6/30/2020,,,,,,,43.726204,-116.775472
Route #1: Enrose - Sand Hollow; stop 1.4,,"25784 Hop Road Caldwell, ID 83607",ID,83607,2084597442,3/30/2020,6/30/2020,,,,,,,43.745969,-116.772172
Route #1: Enrose - Sand Hollow; stop 1.5,,"18248 Goodson Caldwell, ID 83607",ID,83607,2084597442,3/30/2020,6/30/2020,,,,,,,43.7635999,-116.7612699
Route #1: Enrose - Sand Hollow; stop 1.6 (Sinclair Station),,"16000 Highway 20/26 Caldwell, ID 83607",ID,83607,2084597442,3/30/2020,6/30/2020,,,,,,,43.6962614,-116.7126841
Route #1: Enrose - Sand Hollow; stop 1.7,,"15581 Purple Sage Caldwell, ID 83607",ID,83607,2084597442,3/30/2020,6/30/2020,,,,,,,43.7353533,-116.7095094
Route #1: Enrose - Sand Hollow; stop 1.8,,"18346 Sand Hollow Caldwell, ID 83607",ID,83607,2084597442,3/30/2020,6/30/2020,,,,,,,43.77833709999999,-116.7560404
Route #1: Enrose - Sand Hollow; stop 1.9,,"Corner of Market & Sand Hollow Caldwell, ID 83607",ID,83607,2084597442,3/30/2020,6/30/2020,,,,,,,43.8075,-116.7475
Route #2: Dixie - In Town; stop 2.1 ,,"510 Notus Rd Notus, ID 83656",ID,83656,2084597442,3/30/2020,6/30/2020,,,,,,,43.7274959,-116.7973687
Route #2: Dixie - In Town; stop 2.10,,"Idaho & Hwy 20/26 Caldwell, ID 83607",ID,83607,2084597442,3/30/2020,6/30/2020,,,,,,,43.66293839999999,-116.6873596
Route #2: Dixie - In Town; stop 2.11,,"21377 Boise River Road Caldwell, ID 83607",ID,83607,2084597442,3/30/2020,6/30/2020,,,,,,,43.7160213,-116.8204506
Route #2: Dixie - In Town; stop 2.12 ,,"Corner of Boise River Rd & Howe Caldwell, ID 83607",ID,83607,2084597442,3/30/2020,6/30/2020,,,,,,,43.72707279999999,-116.8767003
Route #2: Dixie - In Town; stop 2.13 ,,"22681 Howe Road Caldwell, ID 83607",ID,83607,2084597442,3/30/2020,6/30/2020,,,,,,,43.705177,-116.846484
Route #2: Dixie - In Town; stop 2.14 ,,"22789 Notus Road Caldwell, ID 83607",ID,83607,2084597442,3/30/2020,6/30/2020,,,,,,,43.702861,-116.805414
Route #2: Dixie - In Town; stop 2.15,,"23325 Boise River Road Caldwell, ID 83607",ID,83607,2084597442,3/30/2020,6/30/2020,,,,,,,43.719601,-116.858297
Route #2: Dixie - In Town; stop 2.16 (Greenleaf City Hall),,"20523 Whittier Dr. Greenleaf, ID 83626",ID,83626,2084597442,3/30/2020,6/30/2020,,,,,,,43.66972550000001,-116.8156407
Route #2: Dixie - In Town; stop 2.2 (Notus City Hall),,"375 Notus Road Notus, ID 83656",ID,83656,2084597442,3/30/2020,6/30/2020,,,,,,,43.72541940000001,-116.7992719
Route #2: Dixie - In Town; stop 2.3,,"417 Fargo Notus, ID 83656",ID,83656,2084597442,3/30/2020,6/30/2020,,,,,,,43.7260178,-116.8010338
Route #2: Dixie - In Town; stop 2.4,,"512 1st Street Notus, ID 83656",ID,83656,2084597442,3/30/2020,6/30/2020,,,,,,,43.7274445,-116.7989401
Route #2: Dixie - In Town; stop 2.5,,"339 Jasper Notus, ID 83656",ID,83656,2084597442,3/30/2020,6/30/2020,,,,,,,43.72889199999999,-116.7993644
Route #2: Dixie - In Town; stop 2.6,,"382 Jasper Notus, ID 83656",ID,83656,2084597442,3/30/2020,6/30/2020,,,,,,,43.7292417,-116.8003168
Route #2: Dixie - In Town; stop 2.7,,"Corner of 2nd Street & Jasper Notus, ID 83656",ID,83656,2084597442,3/30/2020,6/30/2020,,,,,,,43.729059,-116.800241
Route #2: Dixie - In Town; stop 2.8,,"Corner of View and Jasper Notus, ID 83656",ID,83656,2084597442,3/30/2020,6/30/2020,,,,,,,43.729036,-116.800928
Route #2: Dixie - In Town; stop 2.9,,"Corner of Tower & Jasper Notus, ID 83656",ID,83656,2084597442,3/30/2020,6/30/2020,,,,,,,43.72903489999999,-116.801575
Sacajawea Elementary,,"1710 North Illinois Caldwell, ID 83605",ID,83605,2084553331,3/18/2020,6/30/2020,,,,,,,43.6855971,-116.6771221
Sacajawea Jr. High,,"3610 12th St Lewiston , ID 83501",ID,83501,2087483064,3/16/2020,,,,,,,,46.3720519,-116.971868
Sage Valley Middle School,,"18070 Sanata Ana Ave Nampa, ID 83687",ID,83687,2084549614,3/30/2020,5/29/2020,,,,,,,43.6348436,-116.6010956
Sand Hollow Country Market,,"500 Sand Hollow Rd. Caldwell, ID 83607",ID,83607,2082785333128,3/30/2020,6/30/2020,,,,,,,43.8075438,-116.7475068
Santa Y,,"Highway 3 South & Highway 6 Santa, ID 83861",ID,83861,2082451309,3/23/2020,6/30/2020,,,,,,,47.1500657,-116.4492971
Senior Center,,"103 S Main Street Council, ID 83612",ID,83612,2082534223,3/30/2020,4/30/2020,,,,,,,44.7295898,-116.4397686
Sherman Elementary,,"1521 E Sherman Ave Nampa, ID 83686",ID,83686,2084684607,3/30/2020,4/21/2020,,,,,,,43.5635169,-116.550636
Shoestring Shop,,"1600 Shoestring Rd Gooding, ID 83330",ID,83330,2089344321,3/17/2020,6/30/2020,,,,,,,42.8655658,-114.7718683
Shoshone Bannock Jr/Sr High,,"50 S Hi-Line Rd Pocatello, ID 83202",ID,83202,2082384200,3/17/2020,6/30/2020,,,,,,,43.0148551,-112.4373534
Silver Hills Elementary,,"1246 Silver Valley Road Osburn, ID 83849",ID,83849,2087534515,3/23/2020,4/20/2020,,,,,,,47.49910970000001,-115.9833699
Skyway Elementary,,"6621 Courcelles Parkway Coeur d' Alene, ID  83814",ID ,83814,2089290220,3/23/2020,6/30/2020,,,,,,,47.7322623,-116.8184715
Skyway Elementary,,"19430 Ward Rd Caldwell, ID 83605",ID,83605,2084549614,3/30/2020,5/29/2020,,,,,,,43.6548268,-116.6224268
Snake River Elementarry,,"500 Stampede Dr Nampa, ID 83687",ID,83687,2084684607,3/30/2020,4/21/2020,,,,,,,43.58907019999999,-116.5460975
Snake River Junior High,,"918 W Highway 39 Blackfoot, ID 83221",ID,83221,2086843001,3/23/2020,6/30/2020,,,,,,,43.1985438,-112.4784135
South Council,,"2121 Kilborn Ln Mesa, ID 83643",ID,83643,2082534223,3/30/2020,4/30/2020,,,,,,,44.6241743,-116.4628995
South Fork Elementary,,"7163 S 2000 W. Rexburg, ID 83440",ID,83440,208359362,3/18/2020,3/28/2020,,,,,,,43.726244,-111.819668
South Pleasant Valley,,"Corner of JoAnna Court and Vista American Falls, ID 83211",ID,83211,2082214830,3/30/2020,5/1/2020,,,,,,,42.78984519999999,-112.9336735
Southside Elementary School,,"307 Southside Rd. Cocolalla, ID 83813",ID,83813,20826321841018,3/19/2020,6/30/2020,,,,,,,48.0999388,-116.6132026
State Shed,,"Highway 3 N and Hells Gulch Road St. Maries, ID 83861",ID,83861,2082451309,3/23/2020,6/30/2020,,,,,,,47.3152384,-116.5624581
Steele Home Bus Stop,,"372 2nd St Mullan, ID 83846",ID,83846,2087441118,3/19/2020,6/30/2020,,,,,,,47.4737354,-115.80234
Stephensen Elementary School,,"100 Gunfighter Ave, Mountain Home AFB Mountain Home AFB, ID 83648",ID,83648,2085872580,3/30/2020,6/30/2020,,,,,,,43.0560009,-115.8518725
Stricker Elementary School,,"900 Polk St West Kimberly , ID 83341",ID,83341,2084234170,3/23/2020,4/30/2020,,,,,,,42.54096,-114.3743732
Stuart Park,,"5161 Stuart Ave Pocatello, ID 83202",ID,83202,2082353256,3/25/2020,5/30/2020,,,,,,,42.927407,-112.474472
Summit Hills Elementary,,"2853 N Lucinda Ave Idaho Falls, ID 83401",ID,83401,2082279671,3/16/2020,6/30/2020,,,,,,,43.5222466,-111.9772348
Sunrise Elementary,,"200 E Fir St Shelley, ID 83274",ID,83274,2083577435,3/30/2020,6/30/2020,,,,,,,43.373403,-112.1207093
Suntree Hollow Mobile Home Park,,"12590 Hwy 75 Ketchum, ID 83353",ID,83353,2085785000,3/18/2020,4/3/2020,,,,,,,43.6494902,-114.3472508
Taft Elementary,,"3722 W Anderson St Boise , ID 83703",ID,83703,2088544067,3/23/2020,6/30/2020,,,,,,,43.642069,-116.235863
Taft Food Service Bus Route,,"N 34 St & W Magnolia Boise, ID 83703",ID,83703,2088544067,3/23/2020,6/30/2020,,,,,,,43.651418,-116.2308151
Taft Food Service Bus Route,,"N Market Ln (after turn from W Stoker Ln) Boise, ID 83703",ID,83703,2088544067,3/23/2020,6/30/2020,,,,,,,43.6534696,-116.2522005
Taft Food Service Bus Route,,"3304 N Lakeharbor Ln Boise, ID 83703",ID,83703,2088544067,3/23/2020,6/30/2020,,,,,,,43.6503159,-116.2506635
Taft Food Service Bus Route,,"W Wylie Ln (just 200 ft. off W State St). Boise, ID 83703",ID,83703,2088544067,3/23/2020,6/30/2020,,,,,,,43.6476796,-116.2463731
Taft Food Service Bus Route,,"N Lander St & W Garnet St. Boise, ID 83703",ID,83703,2088544067,3/23/2020,6/30/2020,,,,,,,43.6422862,-116.2412475
Tahoe Ridge Bus Route ,,"306 Pine Street Kooskia, ID 83539",ID,83539,2089830990,3/19/2020,6/30/2020,,,,,,,46.1461422,-115.9744269
Tahoe Ridge Bus Route ,,"518 Leitch Creek Road Kooskia, ID 83539",ID,83539,2089830990,3/19/2020,6/30/2020,,,,,,,46.1010575,-115.9029329
Tahoe Ridge Bus Route ,,"Intersection Too Kush and Walker Road Kooskia, ID 83539",ID,83539,2089830990,3/19/2020,6/30/2020,,,,,,,46.116947,-115.8939521
Tahoe Ridge Bus Route ,,"358 Trenary Road Kooskia, ID 83539",ID,83539,2089830990,3/19/2020,6/30/2020,,,,,,,46.11259,-115.8783573
Tahoe Ridge Bus Route ,,"787 Leitch Creek Road Kooskia, ID 83539",ID,83539,2089830990,3/19/2020,6/30/2020,,,,,,,46.0958578,-115.8722406
Tahoe Ridge Bus Route ,,"1832 Nelson Road Kooskia, ID 83539",ID,83539,2089830990,3/19/2020,6/30/2020,,,,,,,46.111202,-115.84549
Tahoe Ridge Bus Route ,,"506 Red Fir Road Kooskia, ID 83539",ID,83539,2089830990,3/19/2020,6/30/2020,,,,,,,46.101133,-115.841544
Tahoe Ridge Bus Route ,,"Intersection TINKER CREEK ROAD and Big Cedar Kooskia, ID 83539",ID,83539,2089830990,3/19/2020,6/30/2020,,,,,,,46.0991692,-115.8004607
Temple View Elementary School,,"1500 Scorpius Dr. Idaho Falls, ID 83402",ID,83402,2085257532,3/18/2020,6/30/2020,,,,,,,43.50055039999999,-112.0552741
Terreton Elementary Jr/Sr High,,"1256 E 1500 N Terreton, ID 83450",ID,83450,2086636017,3/18/2020,4/3/2020,,,,,,,43.840826,-112.444482
Teton Elementary,,"128 W Main St. Teton , ID 83451",ID,83451,2086247542,3/23/2020,4/20/2020,,,,,,,43.8865803,-111.6760339
Thatcher Elementary School,,"6007 E Thatcher Rd Thatcher , ID  83283",ID ,83283,2083170483,3/18/2020,6/30/2020,,,,,,,42.40722179999999,-111.7307511
The Church of Jesus Christ of Latter-day Saints,,"502 S Iowa Payette, ID 83661",ID,83661,2086424751,3/18/2020,3/30/2020,,,,,,,44.0686989,-116.913963
The Meadows Mobile Home Park,,"70 Meadows Lane Ketchum, ID 83353",ID,83353,2085785000,3/18/2020,4/3/2020,,,,,,,43.6973646,-114.372419
Thirkill Elementary,,"60 E 4th St S Soda Springs, ID 83276",ID,83276,2087091043,3/18/2020,6/30/2020,,,,,,,42.6494314,-111.6021037
Three Mile Bus Loop,,"Bus Road Bonners Ferry, ID 83805",ID,83805,2082675519,3/23/2020,5/31/2020,"M,T,W,Th",,,,,,48.6913257,-116.3163092
Tiebreaker Elementary,,"3100 1st Street Idaho Falls, ID 83401",ID,83401,2082279671,3/16/2020,6/30/2020,,,,,,,43.4963666,-111.9741442
Timberlake High,,"5303 ID-54 Spirit Lake, ID 83869",ID,83869,2086870431,3/18/2020,4/24/2020,,,,,,,47.9537928,-116.864545
Timberline Elementary,,"22869 HWY 11 Weippe, ID 83553",ID,83553,2084760500,3/23/2020,4/30/2020,,,,,,,46.4351266,-115.8882506
Town House Apartments,,"415 S 16th St. Payette, ID 83661",ID,83661,2086424751,3/18/2020,3/30/2020,,,,,,,44.07024819999999,-116.9227407
Troy Community Library,,"402 S Main St. Troy, ID  83871",ID ,83871,2086692168,3/17/2020,4/6/2020,,,,,,,46.7357896,-116.7680225
Troy Elementary,,"103 Trojan Dr. Troy, ID  83871",ID ,83871,2086692168,3/17/2020,4/6/2020,,,,,,,46.74734609999999,-116.7674875
Turner Dairy,,"1750 S 1625 E Gooding, ID 83330",ID,83330,2089344321,3/18/2020,6/30/2020,,,,,,,42.9459177,-114.7620379
Txoko Ona Basque Center,,"333 S Main St. Homedale, ID 83628",ID,83628,2083374033,3/30/2020,4/30/2020,"M,T,W,Th",,,,,,43.6135838,-116.9330147
Ucon Elementary,,"10841 N 41 E Idaho Falls, ID 83401",ID,83401,2082279671,3/16/2020,6/30/2020,,,,,,,43.59204,-111.952028
Upriver School,,"75 Fern St. St. Maries, ID 83861",ID,83861,2082451309,3/23/2020,6/30/2020,,,,,,,47.11489479999999,-116.3896331
Ustick Elementary,,"12435 W Ustick Rd Boise, ID 83713",ID,83713,2083505109,3/20/2020,6/30/2020,,,,,,,43.632927,-116.338137
Valley Country Store,,"2442 Main St Gooding, ID 83330",ID,83330,2089344321,3/18/2020,6/30/2020,,,,,,,42.92243209999999,-114.7116235
Valley School,,"882 Valley Rd. South Hazelton, ID 83335",ID,83335,2088294107,3/31/2020,6/30/2020,,,,,,,42.5930853,-114.1712347
Vallivue High School,,"1407 E Homedale Rd Caldwell, ID 83607",ID,83607,2084549614,3/30/2020,5/29/2020,,,,,,,43.6198034,-116.6480815
Valmont Industries Parking Lot,,"2698 Lakeview Road American Falls, ID 83211",ID,83211,2082214830,3/30/2020,5/1/2020,,,,,,,42.7951019,-112.832069
Van Buren Elementary,,"3115 Marblefront Rd Caldwell, ID 83605",ID,83605,2084553331,3/18/2020,6/30/2020,,,,,,,43.6744489,-116.6596856
Viola and North Moscow Bus Route,,"1300 Main St. Moscow , ID 83872",ID,83872,2088921123,3/24/2020,4/3/2020,,,,,,,46.8392778,-117.0244506
Vision Charter School,,"19291 Ward Road Caldwell, ID 83605",ID,83605,2086024349,3/30/2020,5/31/2020,,,,,,,43.6519628,-116.6246027
Wada Farms Area,,"Intersection Lamb Weston and Whitnam Road American Falls, ID 83211",ID,83211,2082214830,3/30/2020,5/1/2020,,,,,,,42.7666335,-112.9133795
Wahl Creek Bus Route,,"Intersection 3rd and Main Street Kooskia, ID 83539",ID,83539,2089830990,3/19/2020,6/30/2020,,,,,,,46.13740840000001,-115.9787009
Wahl Creek Bus Route,,"108 Main Street (HWY 13) Stites, ID 83552",ID,83552,2089830990,3/19/2020,6/30/2020,,,,,,,46.08916,-115.9760847
Wahl Creek Bus Route,,"Intersection Bridge Street and HWY 13 Stites, ID 83552",ID,83552,2089830990,3/19/2020,6/30/2020,,,,,,,46.09155699999999,-115.9762305
Wahl Creek Bus Route,,"3919 HWY 13 Stites, ID 83552",ID,83552,2089830990,3/19/2020,6/30/2020,,,,,,,46.0526434,-115.971613
Wahl Creek Bus Route,,"Intersection HWY 13 and ROCKY POINT ROAD Stites, ID 83552",ID,83552,2089830990,3/19/2020,6/30/2020,,,,,,,46.09155699999999,-115.9762305
Wahl Creek Bus Route,,"Intersection Sally Ann Road and Wahl Creek Road Clearwater, ID 83539",ID,83539,2089830990,3/19/2020,6/30/2020,,,,,,,46.4895866,-116.4534973
Wahl Creek Bus Route,,"2895 HWY 13 Harpster, ID 83552",ID,83552,2089830990,3/19/2020,6/30/2020,,,,,,,45.981544,-115.9645849
Wahl Creek Bus Route,,"Intersection Jacks Road and Old Elk City Wagon Road Clearwater, ID 83539",ID,83539,2089830990,3/19/2020,6/30/2020,,,,,,,46.018871,-115.891353
Wahl Creek Bus Route,,"429 WAHL CREEK Kooskia, ID 83539",ID,83539,2089830990,3/19/2020,6/30/2020,,,,,,,45.9970964,-115.9362949
Wahl Creek Bus Route,,"Intersection Lee Road and Wahl Creek Road Harpster, ID 83552",ID,83552,2089830990,3/19/2020,6/30/2020,,,,,,,45.987996,-115.940063
Wahl Creek Bus Route,,"Intersection Clearwater Drive and Wahl Creek Road Harpster, ID 83552",ID,83552,2089830990,3/19/2020,6/30/2020,,,,,,,45.996823,-115.951739
Wahl Creek Bus Route,,"Intersection Ferguson and Wahl Creek Road Kooskia, ID 83539",ID,83539,2089830990,3/19/2020,6/30/2020,,,,,,,46.105176,-115.908665
Wahl Creek Bus Route,,"Intersection Lightening Creek Road And HWY 13 Harpster, ID 83552",ID,83552,2089830990,3/19/2020,6/30/2020,,,,,,,45.9601028,-115.9605261
Wahl Creek Bus Route,,"2858 Hwy 13 Stites, ID 83552",ID,83552,2089830990,3/19/2020,6/30/2020,,,,,,,45.9767018,-115.9645863
Wahl Creek Bus Route,,"Intersection HWY 13 and Sears Harpster, ID 83552",ID,83552,2089830990,3/19/2020,6/30/2020,,,,,,,45.9782107,-115.9640839
Wallace Jr./Sr. High School,,"1 Miners Alley Wallace, ID 83873",ID,83873,2087534515,3/23/2020,4/20/2020,,,,,,,47.4743198,-115.9276059
Wapello Elementary,,"195 E 350 N Blackfoot, ID 83221",ID,83221,2087858861,3/23/2020,4/3/2020,,,,,,,43.2465807,-112.2584928
Washington Elementary,,"2918 Washington Ave Caldwell, ID 83605",ID,83605,2084553331,3/18/2020,6/30/2020,,,,,,,43.6436878,-116.6867677
Washington Elementary School,,"226 South 10th Pocatello, ID 83201",ID,83201,2082353256,3/25/2020,5/30/2020,,,,,,,42.86880499999999,-112.4366992
Weiser Middle School,,"320 E Galloway Ave Weiser, ID 83672",ID,83672,2084140723,3/30/2020,5/29/2020,,,,,,,44.25058689999999,-116.9645342
Wendell Elementary,,"232 North Boise St Wendell, ID 83355",ID,83355,2085360019,3/30/2020,6/30/2020,,,,,,,42.7780156,-114.7025546
West Canyon Elementary,,"19548 Ustick Rd Caldwell, ID 83607",ID,83607,2084549614,3/30/2020,5/29/2020,,,,,,,43.6336485,-116.783966
West Elementary,,"415 W 2nd N Mountain Home, ID 83647",ID,83647,2085872580,3/30/2020,6/30/2020,,,,,,,43.1291562,-115.6984149
West Middle School,,"28 S. Midland Blvd. Nampa, ID 83651",ID,83651,2084684607,3/30/2020,4/21/2020,,,,,,,43.5740633,-116.5905001
West Park,,"Idaho Steet Gooding, ID 83330",ID,83330,2089344321,3/18/2020,6/30/2020,,,,,,,42.936561,-114.714174
West Park Elementary,,"510 Home Moscow , ID 83843",ID,83843,2088921123,3/24/2020,4/3/2020,,,,,,,46.73079449999999,-117.0100533
Westside School,,"609 N 5th St Payette, ID 83661",ID,83661,2086424751,3/18/2020,3/30/2020,,,,,,,44.0810847,-116.9403517
Westwood Mobile Home Park,,"413 Broadford Rd. Bellevue, ID 83313",ID,83313,2085785000,3/18/2020,4/3/2020,,,,,,,43.4681527,-114.2669503
White Pine Elementary School,,"1900 Hiland Ave Burley, ID 83318",ID,83318,2088786626,3/30/2020,4/3/2020,,,,,,,42.5285781,-113.7844584
Whitney Elementary,,"1609 S Owyhee St Boise , ID 83705",ID,83705,2088544067,3/23/2020,6/30/2020,,,,,,,43.5879993,-116.2245354
Whitney Trailer Park,,"1015 7th Ave N Payette, ID 83661",ID,83661,2086424751,3/18/2020,3/30/2020,,,,,,,44.0825055,-116.9313376
Whittier Elementary School,,"301 N 29th St Boise , ID 83702",ID,83702,2088544067,3/23/2020,6/30/2020,,,,,,,43.623501,-116.227193
Wicap Head Start School,,"2281 7th Ave N Payette, ID 83661",ID,83661,2086424751,3/18/2020,3/30/2020,,,,,,,44.0815578,-116.9142115
Wilcos Elementary School,,"427 Lark Ln Pocatello, ID 83201",ID,83201,2082353256,3/25/2020,5/30/2020,,,,,,,42.8985701,-112.4743924
Wilderness Ranch Dept.,,"7 Wilderness Way Boise, ID 83716",ID,83716,2083924183,3/30/2020,6/30/2020,,,,,,,43.6755523,-115.9860099
William Thomas Middle School,,"355 Bannock Ave American Falls, ID 83211",ID,83211,2082214830,3/30/2020,5/1/2020,,,,,,,42.7862441,-112.8469008
Willow Creek Elementary,,"198 Elementary Lane Nampa, ID 83651",ID,83651,2084684607,3/30/2020,4/21/2020,,,,,,,43.5864481,-116.6003693
Wilson Elementary,,"400 East Linden St Caldwell, ID 83605",ID,83605,2084553331,3/18/2020,6/30/2020,,,,,,,43.6464496,-116.6938759
Winton Elementary,,"920 W. Lacrosse Coeur d' Alene, ID  83814",ID ,83814,2089290220,3/23/2020,6/30/2020,,,,,,,47.6892933,-116.7969
YMCA Learning Center,,"155 North Corner St. Idaho Falls, ID 83402",ID,83402,7192053750,3/24/2020,4/3/2020,,7:30 AM - 9:00 AM,11 AM - 12:30 PM,,,,43.488449,-112.034937
